Searched Profession,Searched Location,Detail Url,Name,Phone Number,Street Address,City,State,State_abbr,Zip Code
Locksmiths,"Nashville, TN",https://411.info/business/A-1-Locksmith-Inc-Nashville-TN-30661846,A-1 Locksmith Inc,(615) 900-5555,"3005 Nolensville Pike, Suite B",Nashville,Tennessee,TN,37211
Locksmiths,"Nashville, TN",https://411.info/business/LOCKSMITH-PRO-INC-Nashville-TN-31708830,LOCKSMITH PRO INC,(615) 752-2525,2115 Murfreesboro Pike,Nashville,Tennessee,TN,37217
Locksmiths,"Nashville, TN",https://411.info/business/Emergency-A-Always-Available-24-Hour-Locksmith-Nashville-TN-19292161,Emergency A Always Available 24 Hour Locksmith,(615) 883-3815,2527 Lebanon Pike,Nashville,Tennessee,TN,37214-2414
Locksmiths,"Nashville, TN",https://411.info/business/Locksmith-of-Nashville-Nashville-TN-21245772,Locksmith of Nashville,(615) 340-6006,1013 16th Ave,Nashville,Tennessee,TN,37212-2302
Locksmiths,"Nashville, TN",https://411.info/business/1A1-Lock-and-Locksmith-24-Hours-Nashville-TN-19395953,1A1 Lock and Locksmith 24 Hours,(615) 925-3408,2244 Murfreesboro Pike,Nashville,Tennessee,TN,37217-3313
Locksmiths,"Nashville, TN",https://411.info/business/A1-24-Hours-Locksmith-Nashville-TN-19909817,A1 24 Hours Locksmith,(615) 925-3362,8001 Hooten Hows Rd,Nashville,Tennessee,TN,37221-1009
Locksmiths,"Nashville, TN",https://411.info/business/Locksmith-Inc-Nashville-TN-19703961,Locksmith Inc,(615) 925-3011,4683 Trousdale Dr,Nashville,Tennessee,TN,37204-4584
Locksmiths,"Nashville, TN",https://411.info/business/ASAP-24-Hour-Locksmith-Nashville-TN-18025637,ASAP 24 Hour Locksmith,(615) 932-5119,232 New Sawyer Brown Rd,Nashville,Tennessee,TN,37221-1522
Locksmiths,"Nashville, TN",https://411.info/business/A1-24-Hours-Locksmith-Nashville-TN-21456076,A1 24 Hours Locksmith,(615) 925-3410,518 Donelson Pike,Nashville,Tennessee,TN,37214-3729
Locksmiths,"Nashville, TN",https://411.info/business/24-All-Day-Locksmith-Nashville-TN-18837353,24 All Day Locksmith,(615) 932-2125,200 Fall St,Nashville,Tennessee,TN,37206-1703
Locksmiths,"Nashville, TN",https://411.info/business/24-Hour-Locksmith-Nashville-TN-20526277,24 Hour Locksmith,(615) 925-3359,2369 Murfreesboro Pike,Nashville,Tennessee,TN,37217-3314
Locksmiths,"Nashville, TN",https://411.info/business/Goog-Locksmith-Nashville-TN-16409801,Goog Locksmith,(615) 932-6777,698 Thompson Ln,Nashville,Tennessee,TN,37204-3608
Locksmiths,"Nashville, TN",https://411.info/business/A-Best-Locksmith-Nashville-TN-17419377,A-Best Locksmith,(615) 308-6794,,Nashville,Tennessee,TN,37201
Locksmiths,"Nashville, TN",https://411.info/business/24-Emergency-Locksmith-Nashville-TN-15198009,24 Emergency Locksmith,(615) 932-2407,3504 Belmont Blvd,Nashville,Tennessee,TN,37215-1608
Locksmiths,"Nashville, TN",https://411.info/business/Emerg-Locks-A-Locksmith-Nashville-TN-17016577,Emerg Locks A Locksmith,(615) 932-6994,4052 Kings Ln,Nashville,Tennessee,TN,37218-1443
Locksmiths,"Nashville, TN",https://411.info/business/All-Cities-Locksmith-Nashville-TN-16005717,All Cities Locksmith,(615) 932-6934,2900 West End Ave,Nashville,Tennessee,TN,37203-1316
Locksmiths,"Nashville, TN",https://411.info/business/1A1-Lock-and-Locksmith-24-Hours-Nashville-TN-20013109,1A1 Lock and Locksmith 24 Hours,(615) 925-3334,2840 Lebanon Pike,Nashville,Tennessee,TN,37214-2519
Locksmiths,"Nashville, TN",https://411.info/business/1a1-Lock-Locksmith-24-Hours-Nashville-TN-20629261,1a1 Lock & Locksmith 24 Hours,(615) 925-3876,7601 Highway 70,Nashville,Tennessee,TN,37221-1853
Locksmiths,"Nashville, TN",https://411.info/business/A-Always-Available-Locksmith-Nashville-TN-20732797,A Always Available Locksmith,(615) 925-3343,3909 Hillsboro Pike,Nashville,Tennessee,TN,37215-2716
Locksmiths,"Nashville, TN",https://411.info/business/Precision-Locksmith-Nashville-TN-21559161,Precision Locksmith,(615) 321-5006,1228 Sugar Creek Cir,Nashville,Tennessee,TN,37214-3367
Locksmiths,"Nashville, TN",https://411.info/business/Best-Buy-Locksmith-Nashville-TN-15399676,Best Buy Locksmith,(615) 932-6786,1516 Demonbreun St,Nashville,Tennessee,TN,37203-3112
Locksmiths,"Nashville, TN",https://411.info/business/1A1-Lock-and-Locksmith-24-Hours-Nashville-TN-21352609,1A1 Lock and Locksmith 24 Hours,(615) 925-3327,20 Burton Hills Blvd,Nashville,Tennessee,TN,37215-6197
Locksmiths,"Nashville, TN",https://411.info/business/1-Hour-All-Day-A-Locksmith-Nashville-TN-2090962,1 Hour All Day A Locksmith,(615) 932-2199,725 25th Ave,Nashville,Tennessee,TN,37208-3601
Locksmiths,"Nashville, TN",https://411.info/business/Locks-24-Locksmith-Nashville-TN-18430176,Locks 24 Locksmith,(615) 932-2184,3920 Banbury Dr,Nashville,Tennessee,TN,37207-1602
Locksmiths,"Nashville, TN",https://411.info/business/Ignition-Key-Locksmith-Nashville-TN-17016572,Ignition Key Locksmith,(615) 932-6792,2104 Crestmoor Rd,Nashville,Tennessee,TN,37215-2631
Locksmiths,"Nashville, TN",https://411.info/business/Locksmith-Service-All-Around-Nashville-TN-18837360,Locksmith Service All Around,(615) 932-6849,606 Shelby Ave,Nashville,Tennessee,TN,37206-4147
Locksmiths,"Nashville, TN",https://411.info/business/1-Locksmith-All-Around-Nashville-TN-18636072,1 Locksmith All Around,(615) 932-6964,2324 Lebanon Pike,Nashville,Tennessee,TN,37214-2411
Locksmiths,"Nashville, TN",https://411.info/business/24-Anytime-Locksmith-Nashville-TN-15803704,24 Anytime Locksmith,(615) 932-2455,6700 River Road Pike,Nashville,Tennessee,TN,37209-5619
Locksmiths,"Nashville, TN",https://411.info/business/Aaa-Locksmith-Of-Nashville-Nashville-TN-15803709,Aaa Locksmith Of Nashville,(615) 932-6681,2572 Music Valley Dr,Nashville,Tennessee,TN,37214-1003
Locksmiths,"Nashville, TN",https://411.info/business/24-Hour-Locksmith-Nashville-TN-20835584,24 Hour Locksmith,(615) 925-3922,73 White Bridge Rd,Nashville,Tennessee,TN,37205-1444
Locksmiths,"Nashville, TN",https://411.info/business/A-Always-Available-Locksmith-Nashville-TN-20526284,A Always Available Locksmith,(615) 925-3918,833 W Nocturne Dr,Nashville,Tennessee,TN,37207-4211
Locksmiths,"Nashville, TN",https://411.info/business/Precision-Locksmith-Nashville-TN-21040716,Precision Locksmith,(615) 889-7889,1228 Sugar Creek Cir,Nashville,Tennessee,TN,37214-3367
Locksmiths,"Nashville, TN",https://411.info/business/24-Locksmith-Nashville-TN-16005712,24 Locksmith,(615) 932-2469,244 Holt Hills Rd,Nashville,Tennessee,TN,37211-6919
Locksmiths,"Nashville, TN",https://411.info/business/Emerg-Locks-A-Locksmith-Nashville-TN-17218440,Emerg Locks A Locksmith,(615) 932-2918,201 32nd Ave,Nashville,Tennessee,TN,37212-3205
Locksmiths,"Nashville, TN",https://411.info/business/24-Hour-Locksmith-Nashville-TN-19601420,24 Hour Locksmith,(615) 925-3878,3210 Nolensville Pike,Nashville,Tennessee,TN,37211-2908
Locksmiths,"Nashville, TN",https://411.info/business/Emergency-Locksmith-Nashville-TN-19498656,Emergency Locksmith,(615) 925-3325,5704 Amalie Dr,Nashville,Tennessee,TN,37211-5993
Locksmiths,"Nashville, TN",https://411.info/business/A-Emergency-A-Always-24-Hour-Locksmith-Nashville-TN-20012752,A Emergency A Always 24 Hour Locksmith,(615) 327-1580,2112 Charlotte Ave,Nashville,Tennessee,TN,37203-1834
Locksmiths,"Nashville, TN",https://411.info/business/A-Always-Available-Locksmith-Nashville-TN-20218292,A Always Available Locksmith,(615) 925-3930,15590 Old Hickory Blvd,Nashville,Tennessee,TN,37211-7331
Locksmiths,"Nashville, TN",https://411.info/business/A1-24-Hours-Locksmith-Nashville-TN-20115816,A1 24 Hours Locksmith,(615) 925-3893,3120 Harborwood Dr,Nashville,Tennessee,TN,37214-4362
Locksmiths,"Nashville, TN",https://411.info/business/Emergency-Locksmith-Nashville-TN-19189604,Emergency Locksmith,(615) 925-3917,2126 Abbott Martin Rd,Nashville,Tennessee,TN,37215-2690
Locksmiths,"Nashville, TN",https://411.info/business/A1-24-Hours-Locksmith-Nashville-TN-19292192,A1 24 Hours Locksmith,(615) 925-3887,533 Castlegate Dr,Nashville,Tennessee,TN,37217-4266
Locksmiths,"Nashville, TN",https://411.info/business/House-Locksmith-Nashville-TN-18025644,House Locksmith,(615) 932-6944,3700 Buena Vista Pike,Nashville,Tennessee,TN,37218-2032
Locksmiths,"Nashville, TN",https://411.info/business/A-Always-Available-Locksmith-Nashville-TN-19395958,A Always Available Locksmith,(615) 925-3924,741 Work Dr,Nashville,Tennessee,TN,37207-3608
Locksmiths,"Nashville, TN",https://411.info/business/24-Hour-Locksmith-Nashville-TN-20629266,24 Hour Locksmith,(615) 925-3928,715 Youngs Ln,Nashville,Tennessee,TN,37207-4825
Locksmiths,"Nashville, TN",https://411.info/business/All-The-Time-Locksmith-Nashville-TN-17621706,All The Time Locksmith,(615) 932-6942,3116 Belmont Blvd,Nashville,Tennessee,TN,37212-6004
Locksmiths,"Nashville, TN",https://411.info/business/Abare-All-Day-Locksmith-Nashville-TN-16207894,Abare All Day Locksmith,(615) 932-2146,699 Richardson Ave,Nashville,Tennessee,TN,37207
Locksmiths,"Nashville, TN",https://411.info/business/Locks-A-Locksmith-24-Hours-Nashville-TN-20525870,Locks A Locksmith 24 Hours,(615) 256-1115,605 8th Ave,Nashville,Tennessee,TN,37203-4102
Locksmiths,"Nashville, TN",https://411.info/business/Locksmith-Service-Nashville-TN-18635966,Locksmith Service,(615) 873-2167,100 Demonbreun St,Nashville,Tennessee,TN,37201
Locksmiths,"Nashville, TN",https://411.info/business/Emergency-Locksmith-Nashville-TN-19807162,Emergency Locksmith,(615) 925-3399,5429 Nolensville Pike,Nashville,Tennessee,TN,37211-6417
Locksmiths,"Nashville, TN",https://411.info/business/24-All-Day-Locksmith-Nashville-TN-18430082,24 All Day Locksmith,(615) 873-2964,526 Richmar Dr,Nashville,Tennessee,TN,37211-4350
Locksmiths,"Nashville, TN",https://411.info/business/Locksmith-Nashville-TN-15803615,Locksmith,(615) 873-2342,2613 Franklin Pike,Nashville,Tennessee,TN,37204-3042
Locksmiths,"Nashville, TN",https://411.info/business/0-0-0-Locksmith-Nashville-TN-15803711,0 0 0 Locksmith,(615) 932-6780,417 4th Ave,Nashville,Tennessee,TN,37201-2000
Locksmiths,"Nashville, TN",https://411.info/business/24-Locksmith-Nashville-TN-18228615,24 Locksmith,(615) 932-5978,3000 Bluebell Ct,Nashville,Tennessee,TN,37218-1605
Locksmiths,"Nashville, TN",https://411.info/business/Locksmith-Nashville-TN-9233458,Locksmith,(615) 932-2402,2000 24th Ave,Nashville,Tennessee,TN,37212-4230
Locksmiths,"Nashville, TN",https://411.info/business/Online-Locksmith-Nashville-TN-18430183,Online Locksmith,(615) 932-6946,2639 Grandview Ave,Nashville,Tennessee,TN,37211-2202
Locksmiths,"Nashville, TN",https://411.info/business/A-1-Locksmith-Inc-Nashville-TN-19291834,A-1 Locksmith Inc,(615) 333-2224,3005 Nolensville Pike,Nashville,Tennessee,TN,37211-2342
Locksmiths,"Nashville, TN",https://411.info/business/Car-Locksmith-Nashville-TN-19039335,Car Locksmith,(615) 932-6943,3611 Gallatin Pike,Nashville,Tennessee,TN,37216-2600
Locksmiths,"Nashville, TN",https://411.info/business/America-24-Hour-Locksmith-Nashville-TN-7447771,America 24 Hour Locksmith,(615) 932-2198,2600 Batavia St,Nashville,Tennessee,TN,37208-3618
Locksmiths,"Nashville, TN",https://411.info/business/Locksmith-All-Night-Nashville-TN-8043955,Locksmith All Night,(615) 873-2173,522 Southgate Ave,Nashville,Tennessee,TN,37203-5514
Locksmiths,"Nashville, TN",https://411.info/business/All-Day-24-Hour-Locksmith-Nashville-TN-8044263,All Day 24 Hour Locksmith,(615) 932-5118,8213 Spring Ridge Dr,Nashville,Tennessee,TN,37221-4705
Locksmiths,"Nashville, TN",https://411.info/business/Locksmith-Nashville-TN-10424675,Locksmith,(615) 873-2348,2618 Franklin Pike,Nashville,Tennessee,TN,37204
Locksmiths,"Nashville, TN",https://411.info/business/A-to-Z-24-Hour-Locksmith-Nashville-TN-12212963,A to Z 24 Hour Locksmith,(615) 932-2413,4440 Gra Mar Dr,Nashville,Tennessee,TN,37216-1202
Locksmiths,"Nashville, TN",https://411.info/business/0-1-24-By-7-Locksmith-Nashville-TN-16814182,0 1 & 24 By 7 Locksmith,(615) 932-6748,2703 McCampbell Ave,Nashville,Tennessee,TN,37214-2913
Locksmiths,"Nashville, TN",https://411.info/business/Locks-24-Locksmith-Nashville-TN-16409798,Locks 24 Locksmith,(615) 932-5111,4929 Sewanee Rd,Nashville,Tennessee,TN,37220-1421
Locksmiths,"Nashville, TN",https://411.info/business/ABC-24-Hour-Locksmith-Nashville-TN-16611494,ABC 24 Hour Locksmith,(615) 932-5112,1111 Overton Lea Rd,Nashville,Tennessee,TN,37220-1415
Locksmiths,"Nashville, TN",https://411.info/business/Dave-Local-Locksmith-Nashville-TN-16207899,Dave Local Locksmith,(615) 932-6937,313 Rosebank Ave,Nashville,Tennessee,TN,37206-1441
Locksmiths,"Nashville, TN",https://411.info/business/0-1-24-7-Locksmith-Of-Nashville-Nashville-TN-17419442,0 1 24 7 Locksmith Of Nashville,(615) 340-6017,"414 Union St, Frnt",Nashville,Tennessee,TN,37219-1918
Locksmiths,"Nashville, TN",https://411.info/business/Locks-Locksmith-24-Hour-Service-A-Nashville-TN-17419966,Locks & Locksmith 24 Hour Service A,(615) 834-7688,611 Players Ct,Nashville,Tennessee,TN,37211-7012
Locksmiths,"Nashville, TN",https://411.info/business/0-1-A-1-Locksmith-Nashville-TN-17420146,0 1 A 1 Locksmith,(615) 932-6658,1524 Demonbreun St,Nashville,Tennessee,TN,37203-3112
Locksmiths,"Nashville, TN",https://411.info/business/Locks-24-Locksmith-Nashville-TN-15198011,Locks 24 Locksmith,(615) 932-2465,2513 Rascoe Rd,Nashville,Tennessee,TN,37210
Locksmiths,"Nashville, TN",https://411.info/business/39-Dollars-House-Locksmith-Nashville-TN-14793835,39 Dollars House Locksmith,(615) 932-6958,5404 Charlotte Ave,Nashville,Tennessee,TN,37209-3004
Locksmiths,"Nashville, TN",https://411.info/business/Locksmith-Nashville-TN-9828110,Locksmith,(615) 932-6765,6410 Charlotte Pike,Nashville,Tennessee,TN,37209-2970
Locksmiths,"Nashville, TN",https://411.info/business/All-Day-24-Hour-Locksmith-Nashville-TN-14000639,All Day 24 Hour Locksmith,(615) 932-2150,2509 Walker Ln,Nashville,Tennessee,TN,37207-4215
Locksmiths,"Nashville, TN",https://411.info/business/0-1-A-1-Locksmith-Nashville-TN-14793830,0 1 A 1 Locksmith,(615) 932-6763,3116 Dickerson Pike,Nashville,Tennessee,TN,37207-2904
Locksmiths,"Nashville, TN",https://411.info/business/Any-Place-24-Locksmith-Nashville-TN-6852754,Any Place 24 Locksmith,(615) 873-2179,871 Curtiswood Ln,Nashville,Tennessee,TN,37204-4320
Locksmiths,"Nashville, TN",https://411.info/business/In-Town-Local-Locksmith-Nashville-TN-14591746,In Town Local Locksmith,(615) 932-6974,2707 Lebanon Pike,Nashville,Tennessee,TN,37214-2503
Locksmiths,"Nashville, TN",https://411.info/business/Abc-24-Hour-Locksmith-Nashville-TN-17218438,Abc 24 Hour Locksmith,(615) 932-2147,755 Ringgold Dr,Nashville,Tennessee,TN,37207-3647
Locksmiths,"Nashville, TN",https://411.info/business/Look-For-Locksmith-Nashville-TN-14994990,Look For Locksmith,(615) 932-6931,2614 Gallatin Pike,Nashville,Tennessee,TN,37216-3740
Locksmiths,"Nashville, TN",https://411.info/business/Frank-s-Locksmith-Nashville-TN-2089117,Frank's Locksmith,(615) 386-3309,1508 17th Ave,Nashville,Tennessee,TN,37212-2806
Locksmiths,"Nashville, TN",https://411.info/business/Locks-A-Locksmith-Nashville-TN-19909379,Locks A Locksmith,(615) 256-3030,,Nashville,Tennessee,TN,37201
Locksmiths,"Nashville, TN",https://411.info/business/Locksmith-Inc-Nashville-TN-20423315,Locksmith Inc,(615) 925-3894,426 21st Ave,Nashville,Tennessee,TN,37203-2424
Locksmiths,"Nashville, TN",https://411.info/business/A-Always-Available-Locksmith-Nashville-TN-20115811,A Always Available Locksmith,(615) 925-3337,833 W Nocturne Dr,Nashville,Tennessee,TN,37207-4211
Locksmiths,"Nashville, TN",https://411.info/business/Locksmith-Inc-Nashville-TN-20938395,Locksmith Inc,(615) 925-3341,433 Opry Mills Dr,Nashville,Tennessee,TN,37214-2440
Locksmiths,"Nashville, TN",https://411.info/business/24-Hour-Locksmith-Nashville-TN-21040735,24 Hour Locksmith,(615) 925-3371,395 Wallace Rd,Nashville,Tennessee,TN,37211-4881
Locksmiths,"Nashville, TN",https://411.info/business/Emergency-A-Always-Available-24-Hour-Locksmith-Nashville-TN-21352147,Emergency A Always Available 24 Hour Locksmith,(615) 259-9249,2615 Nolensville Pike,Nashville,Tennessee,TN,37211-2216
Locksmiths,"Nashville, TN",https://411.info/business/1st-Choice-Locksmith-Nashville-TN-21245955,1st Choice Locksmith,(615) 736-5625,2210 Pennington Bend Rd,Nashville,Tennessee,TN,37214-1016
Locksmiths,"Nashville, TN",https://411.info/business/24-Hour-Locksmith-Nashville-TN-21559527,24 Hour Locksmith,(615) 925-3407,2500 Gallatin Ave,Nashville,Tennessee,TN,37206-3216
Locksmiths,"Nashville, TN",https://411.info/business/A-Emergency-Locksmith-Nashville-TN-26303900,A Emergency Locksmith,(615) 724-6854,10 Harding Mall Dr,Nashville,Tennessee,TN,37211-4534
Locksmiths,"Nashville, TN",https://411.info/business/Arvelo-Locksmith-Nashville-TN-26349372,Arvelo Locksmith,(615) 928-3021,555 Church St,Nashville,Tennessee,TN,37219-2352
Locksmiths,"Nashville, TN",https://411.info/business/Atienza-Cheap-Locksmith-Nashville-TN-26358866,Atienza Cheap Locksmith,(615) 258-5916,608 W Trinity Ln,Nashville,Tennessee,TN,37207-4816
Locksmiths,"Nashville, TN",https://411.info/business/Any-1-2-3-24-7-Locksmith-Service-Nashville-TN-26422938,Any 1 2 3 24 7 Locksmith Service,(615) 724-4646,3711 Hillsboro Pike,Nashville,Tennessee,TN,37215-2117
Locksmiths,"Nashville, TN",https://411.info/business/Abbott-Locksmith-Nashville-TN-27381360,Abbott Locksmith,(615) 981-8840,1300 Clinton St,Nashville,Tennessee,TN,37203-7007
Locksmiths,"Nashville, TN",https://411.info/business/A-Abc-Locksmith-Nashville-TN-23679422,A-Abc Locksmith,(615) 724-6336,2120 Green Hills Village Dr,Nashville,Tennessee,TN,37215-2602
Locksmiths,"Nashville, TN",https://411.info/business/Tri-County-Locksmith-Nashville-TN-27452382,Tri County Locksmith,(615) 981-8204,3900 Hillsboro Pike,Nashville,Tennessee,TN,37215-2724
Locksmiths,"Nashville, TN",https://411.info/business/Silver-Locksmith-Nashville-TN-27464072,Silver Locksmith,(615) 981-8830,126 2nd Ave N,Nashville,Tennessee,TN,37201-1902
Locksmiths,"Nashville, TN",https://411.info/business/Natura-Locksmith-Nashville-TN-27464604,Natura Locksmith,(615) 981-8885,573 Murfreesboro Pike,Nashville,Tennessee,TN,37210-3517
Locksmiths,"Nashville, TN",https://411.info/business/Premium-Locksmiths-Nashville-TN-28846168,Premium Locksmiths,(615) 622-3120,318 Broadway,Nashville,Tennessee,TN,37201-2006
Locksmiths,"Nashville, TN",https://411.info/business/Allstate-Locksmith-Garage-Door-Nashville-TN-30648870,Allstate Locksmith & Garage Door,(615) 370-2426,15 Arcade,Nashville,Tennessee,TN,37219-1906
Locksmiths,"Nashville, TN",https://411.info/business/Solid-Locksmith-Nashville-TN-26495548,Solid Locksmith,(615) 928-4810,1200 Villa Pl,Nashville,Tennessee,TN,37212-3033
Locksmiths,"Nashville, TN",https://411.info/business/Nexpro-Locksmith-Nashville-TN-26520340,Nexpro Locksmith,(615) 928-4942,650 Colice Jeanne Rd,Nashville,Tennessee,TN,37221-2811
Locksmiths,"Nashville, TN",https://411.info/business/A-Mobile-Locksmiths-Nashville-TN-26816390,A Mobile Locksmiths,(615) 724-6409,1330 Vultee Blvd,Nashville,Tennessee,TN,37217-1923
Locksmiths,"Nashville, TN",https://411.info/business/Griffin-Mobile-Locksmith-Nashville-TN-25541984,Griffin Mobile Locksmith,(615) 679-3889,1300 Division St,Nashville,Tennessee,TN,37203-4023
Locksmiths,"Nashville, TN",https://411.info/business/Earle-Local-Locksmith-Nashville-TN-25609674,Earle Local Locksmith,(615) 258-5891,6049 Highway 100,Nashville,Tennessee,TN,37205-2820
Locksmiths,"Nashville, TN",https://411.info/business/A-Always-Available-Locksmith-Nashville-TN-20526283,A Always Available Locksmith,(615) 925-3873,2500 Lebanon Pike,Nashville,Tennessee,TN,37214-2415
Locksmiths,"Nashville, TN",https://411.info/business/1A1-Lock-and-Locksmith-24-Hours-Nashville-TN-21144199,1A1 Lock and Locksmith 24 Hours,(615) 925-3366,2611 Franklin Pike,Nashville,Tennessee,TN,37204-3007
Locksmiths,"Nashville, TN",https://411.info/business/Locksmith-Nashville-TN-21352615,Locksmith,(615) 932-6757,718 Thompson Ln,Nashville,Tennessee,TN,37204-3600
Locksmiths,"Nashville, TN",https://411.info/business/A1-24-Hours-Locksmith-Nashville-TN-21040739,A1 24 Hours Locksmith,(615) 925-3919,6521 Radcliff Dr,Nashville,Tennessee,TN,37221-3716
Locksmiths,"Nashville, TN",https://411.info/business/Emergency-Locksmith-Nashville-TN-20835583,Emergency Locksmith,(615) 925-3903,970 Woodland St,Nashville,Tennessee,TN,37206-3722
Locksmiths,"Nashville, TN",https://411.info/business/1A1-Lock-and-Locksmith-24-Hours-Nashville-TN-20938399,1A1 Lock and Locksmith 24 Hours,(615) 925-3921,2840 Lebanon Pike,Nashville,Tennessee,TN,37214-2519
Locksmiths,"Nashville, TN",https://411.info/business/24-A-Always-Available-Locksmith-Nashville-TN-20012751,24 A Always Available Locksmith,(615) 327-1580,2112 Charlotte Ave,Nashville,Tennessee,TN,37203-1834
Locksmiths,"Nashville, TN",https://411.info/business/A-Always-Available-Locksmith-Nashville-TN-20115815,A Always Available Locksmith,(615) 925-3405,2500 Lebanon Pike,Nashville,Tennessee,TN,37214-2415
Locksmiths,"Nashville, TN",https://411.info/business/A1-24-Hours-Locksmith-Nashville-TN-20218291,A1 24 Hours Locksmith,(615) 925-3905,3225 Gallatin Pike,Nashville,Tennessee,TN,37216-3044
Locksmiths,"Nashville, TN",https://411.info/business/Locksmith-Inc-Nashville-TN-19601419,Locksmith Inc,(615) 925-3373,330 Franklin Rd,Nashville,Tennessee,TN,37203
Locksmiths,"Nashville, TN",https://411.info/business/1a1-Lock-Locksmith-24-Hours-Nashville-TN-20320779,1a1 Lock & Locksmith 24 Hours,(615) 925-3895,2611 Franklin Pike,Nashville,Tennessee,TN,37204-3007
Locksmiths,"Nashville, TN",https://411.info/business/ASAP-24-Hour-Locksmith-Nashville-TN-16207895,ASAP 24 Hour Locksmith,(615) 932-2414,1516 Andy St,Nashville,Tennessee,TN,37216-3852
Locksmiths,"Nashville, TN",https://411.info/business/East-Way-Locksmith-Nashville-TN-15601539,East Way Locksmith,(615) 932-6783,215 5th Ave,Nashville,Tennessee,TN,37219-1901
Locksmiths,"Nashville, TN",https://411.info/business/Emergency-A-Always-Available-24-Hour-Locksmith-Nashville-TN-19806735,Emergency A Always Available 24 Hour Locksmith,(615) 298-3422,718 Thompson Ln,Nashville,Tennessee,TN,37204-3600
Locksmiths,"Nashville, TN",https://411.info/business/A1-24-Hours-Locksmith-Nashville-TN-19807163,A1 24 Hours Locksmith,(615) 925-3404,2788 Murfreesboro Rd,Nashville,Tennessee,TN,37201
Locksmiths,"Nashville, TN",https://411.info/business/ASAP-24-Hour-Locksmith-Nashville-TN-14793719,ASAP 24 Hour Locksmith,(615) 873-2182,2727 Bransford Ave,Nashville,Tennessee,TN,37204-3131
Locksmiths,"Nashville, TN",https://411.info/business/Road-Service-Locksmith-Nashville-TN-18837359,Road Service Locksmith,(615) 932-6841,519 Crieve Rd,Nashville,Tennessee,TN,37220-1609
Locksmiths,"Nashville, TN",https://411.info/business/Locks-24-Locksmith-Nashville-TN-16611495,Locks 24 Locksmith,(615) 932-5440,1500 Trailwood Ct,Nashville,Tennessee,TN,37214-4295
Locksmiths,"Nashville, TN",https://411.info/business/ABC-24-Hour-Locksmith-Nashville-TN-18228527,ABC 24 Hour Locksmith,(615) 873-2181,2109 12th Ave,Nashville,Tennessee,TN,37204-2029
Locksmiths,"Nashville, TN",https://411.info/business/Locksmith-Service-All-Around-Nashville-TN-18228623,Locksmith Service All Around,(615) 932-6966,3302 Nolensville Pike,Nashville,Tennessee,TN,37211-2910
Locksmiths,"Nashville, TN",https://411.info/business/0-0-0-Locksmith-Nashville-TN-18025643,0 0 0 Locksmith,(615) 932-6932,936 Delmas Ave,Nashville,Tennessee,TN,37216-3602
Locksmiths,"Nashville, TN",https://411.info/business/All-The-Time-Locksmith-Nashville-TN-14994987,All The Time Locksmith,(615) 932-6790,3108 Belmont Blvd,Nashville,Tennessee,TN,37212-6004
Locksmiths,"Nashville, TN",https://411.info/business/Emergency-A-Always-Available-24-Hour-Locksmith-Nashville-TN-17823091,Emergency A Always Available 24 Hour Locksmith,(615) 383-8565,1796 21st Ave,Nashville,Tennessee,TN,37212-3704
Locksmiths,"Nashville, TN",https://411.info/business/1-800-Locksmith-Nashville-TN-17823659,1 800 Locksmith,(615) 932-6854,1400 Jo Johnston Ave,Nashville,Tennessee,TN,37203-2850
Locksmiths,"Nashville, TN",https://411.info/business/24-Hour-Locksmith-Nashville-TN-21352610,24 Hour Locksmith,(615) 925-3378,3051 Lebanon Pike,Nashville,Tennessee,TN,37214-2229
Locksmiths,"Nashville, TN",https://411.info/business/Music-City-Locksmith-Nashville-TN-14389587,Music City Locksmith,(615) 228-5261,,Nashville,Tennessee,TN,37201
Locksmiths,"Nashville, TN",https://411.info/business/Aarant-Emergency-Locksmith-Nashville-TN-14000359,Aarant Emergency Locksmith,(615) 873-2175,1600 Pearl St,Nashville,Tennessee,TN,37203-2931
Locksmiths,"Nashville, TN",https://411.info/business/Locksmith-All-Night-Nashville-TN-13405875,Locksmith All Night,(615) 932-5115,922 Battery Ln,Nashville,Tennessee,TN,37220-1106
Locksmiths,"Nashville, TN",https://411.info/business/Emergency-Locksmith-Nashville-TN-19292193,Emergency Locksmith,(615) 925-3929,5704 Amalie Dr,Nashville,Tennessee,TN,37211-5993
Locksmiths,"Nashville, TN",https://411.info/business/Nashville-Locksmith-Service-Nashville-TN-20937889,Nashville Locksmith Service,(615) 228-7114,,Nashville,Tennessee,TN,37206
Locksmiths,"Nashville, TN",https://411.info/business/1a1-Lock-Locksmith-24-Hours-Nashville-TN-20629265,1a1 Lock & Locksmith 24 Hours,(615) 925-3915,154 Opry Mills Dr,Nashville,Tennessee,TN,37214-2432
Locksmiths,"Nashville, TN",https://411.info/business/24-Hour-Locksmith-Nashville-TN-21040734,24 Hour Locksmith,(615) 925-3365,1092 Murfreesboro Pike,Nashville,Tennessee,TN,37217-1513
Locksmiths,"Nashville, TN",https://411.info/business/Emergency-Locksmith-Nashville-TN-20218289,Emergency Locksmith,(615) 925-3358,970 Woodland St,Nashville,Tennessee,TN,37206-3722
Locksmiths,"Nashville, TN",https://411.info/business/1a1-Lock-Locksmith-24-Hours-Nashville-TN-20320781,1a1 Lock & Locksmith 24 Hours,(615) 925-3927,20 Burton Hills Blvd,Nashville,Tennessee,TN,37215-6197
Locksmiths,"Nashville, TN",https://411.info/business/Best-Locksmith-Around-Nashville-TN-16409802,Best Locksmith Around,(615) 932-6787,1613 Jefferson St,Nashville,Tennessee,TN,37208-2902
Locksmiths,"Nashville, TN",https://411.info/business/Day-And-Night-Locksmith-Service-Nashville-TN-17823661,Day And Night Locksmith Service,(615) 932-6955,3910 Clarksville Pike,Nashville,Tennessee,TN,37218-1910
Locksmiths,"Nashville, TN",https://411.info/business/Locksmith-Nashville-TN-14000638,Locksmith,(615) 932-2132,910 West Ave,Nashville,Tennessee,TN,37206-3349
Locksmiths,"Nashville, TN",https://411.info/business/Emergency-Locksmith-Nashville-TN-20526276,Emergency Locksmith,(615) 925-3351,4533 Nolensville Pike,Nashville,Tennessee,TN,37211-4732
Locksmiths,"Nashville, TN",https://411.info/business/Ignition-Key-Locksmith-Nashville-TN-20526288,Ignition Key Locksmith,(615) 932-6945,718 Thompson Ln,Nashville,Tennessee,TN,37204-3600
Locksmiths,"Nashville, TN",https://411.info/business/24-All-Day-Locksmith-Nashville-TN-16814176,24 All Day Locksmith,(615) 932-2450,5900 Maxon Ave,Nashville,Tennessee,TN,37209-1872
Locksmiths,"Nashville, TN",https://411.info/business/29-Dollars-Car-Locksmith-Nashville-TN-19039336,29 Dollars Car Locksmith,(615) 932-6957,301 E Thompson Ln,Nashville,Tennessee,TN,37211-2615
Locksmiths,"Nashville, TN",https://411.info/business/24-Hour-Locksmith-Nashville-TN-19909820,24 Hour Locksmith,(615) 925-3902,2369 Murfreesboro Pike,Nashville,Tennessee,TN,37217-3314
Locksmiths,"Nashville, TN",https://411.info/business/7-Days-Locksmith-Nashville-TN-17016576,7 Days Locksmith,(615) 932-6978,3905 Nolensville Pike,Nashville,Tennessee,TN,37211-4202
Locksmiths,"Nashville, TN",https://411.info/business/American-Locksmith-Nashville-TN-18430184,American Locksmith,(615) 932-6952,3110 Dickerson Pike,Nashville,Tennessee,TN,37207-2904
Locksmiths,"Nashville, TN",https://411.info/business/24-Anytime-Locksmith-Nashville-TN-18025636,24 Anytime Locksmith,(615) 932-2419,1617 Litton Ave,Nashville,Tennessee,TN,37216-3919
Locksmiths,"Nashville, TN",https://411.info/business/A-Always-Available-Locksmith-Nashville-TN-20629260,A Always Available Locksmith,(615) 925-3369,4243 Harding Pike,Nashville,Tennessee,TN,37205-2006
Locksmiths,"Nashville, TN",https://411.info/business/Locksmith-Inc-Nashville-TN-21559526,Locksmith Inc,(615) 925-3335,7068 Charlotte Pike,Nashville,Tennessee,TN,37209-4210
Locksmiths,"Nashville, TN",https://411.info/business/ABC-24-Hour-Locksmith-Nashville-TN-17420044,ABC 24 Hour Locksmith,(615) 873-2969,2701 Lakeland Dr,Nashville,Tennessee,TN,37214-3123
Locksmiths,"Nashville, TN",https://411.info/business/Emergency-Locksmith-Nashville-TN-19909818,Emergency Locksmith,(615) 925-3376,"1900 Richard Jones Rd, Ofc",Nashville,Tennessee,TN,37215-2944
Locksmiths,"Nashville, TN",https://411.info/business/Emergency-Locksmith-Nashville-TN-19703962,Emergency Locksmith,(615) 925-3364,2124 Portland Ave,Nashville,Tennessee,TN,37212-3602
Locksmiths,"Nashville, TN",https://411.info/business/A1-Twenty-Four-Hours-Locksmith-Nashville-TN-19601421,A1 Twenty Four Hours Locksmith,(615) 925-3913,4013 Moss Rose Dr,Nashville,Tennessee,TN,37216-2927
Locksmiths,"Nashville, TN",https://411.info/business/A-Always-Available-Locksmith-Nashville-TN-20423314,A Always Available Locksmith,(615) 925-3880,217 W Maplewood Ln,Nashville,Tennessee,TN,37207-2973
Locksmiths,"Nashville, TN",https://411.info/business/24-Hour-Locksmith-Nashville-TN-19498657,24 Hour Locksmith,(615) 925-3339,415 Barrywood Dr,Nashville,Tennessee,TN,37211-4305
Locksmiths,"Nashville, TN",https://411.info/business/24-A-Always-Available-Locksmith-Nashville-TN-19703525,24 A Always Available Locksmith,(615) 292-8999,700 Thompson Ln,Nashville,Tennessee,TN,37204-3610
Locksmiths,"Nashville, TN",https://411.info/business/AAA-Locksmith-Nashville-TN-18837361,AAA Locksmith,(615) 932-6855,1700 5th Ave,Nashville,Tennessee,TN,37208-2245
Locksmiths,"Nashville, TN",https://411.info/business/Emergency-A-Always-Available-24-Hour-Locksmith-Nashville-TN-18429997,Emergency A Always Available 24 Hour Locksmith,(615) 834-8575,431 E Thompson Ln,Nashville,Tennessee,TN,37211-2621
Locksmiths,"Nashville, TN",https://411.info/business/1-866-305-Lock-Locksmith-Nashville-TN-18636073,1 866 305 Lock Locksmith,(615) 932-6970,143 McGavock Pike,Nashville,Tennessee,TN,37214-2143
Locksmiths,"Nashville, TN",https://411.info/business/Emergency-Locksmith-Nashville-TN-19395954,Emergency Locksmith,(615) 925-3872,4201 Clarksville Pike,Nashville,Tennessee,TN,37218-1501
Locksmiths,"Nashville, TN",https://411.info/business/Abbe-Locks-24-Locksmith-Nashville-TN-18025530,Abbe Locks 24 Locksmith,(615) 873-2172,501 8th Ave,Nashville,Tennessee,TN,37203-4118
Locksmiths,"Nashville, TN",https://411.info/business/24-All-Day-Locksmith-Nashville-TN-17823654,24 All Day Locksmith,(615) 932-5114,1007 Battery Ln,Nashville,Tennessee,TN,37220-1030
Locksmiths,"Nashville, TN",https://411.info/business/A1-24-Hours-Locksmith-Nashville-TN-20013110,A1 24 Hours Locksmith,(615) 925-3356,3225 Gallatin Pike,Nashville,Tennessee,TN,37216-3044
Locksmiths,"Nashville, TN",https://411.info/business/Emergency-A-Always-Available-24-Hour-Locksmith-Nashville-TN-20732602,Emergency A Always Available 24 Hour Locksmith,(615) 646-6272,7116 Highway 70,Nashville,Tennessee,TN,37221-2901
Locksmiths,"Nashville, TN",https://411.info/business/Aarant-Emergency-Locksmith-Nashville-TN-5664784,Aarant Emergency Locksmith,(615) 932-5446,3901 Hillsboro Pike,Nashville,Tennessee,TN,37215-2716
Locksmiths,"Nashville, TN",https://411.info/business/General-Locksmith-Nashville-TN-15399677,General Locksmith,(615) 932-6927,1601 Buchanan St,Nashville,Tennessee,TN,37208-1407
Locksmiths,"Nashville, TN",https://411.info/business/ASAP-24-Hour-Locksmith-Nashville-TN-15803705,ASAP 24 Hour Locksmith,(615) 932-5116,110 Plantation Ct,Nashville,Tennessee,TN,37221-7402
Locksmiths,"Nashville, TN",https://411.info/business/All-Around-Locksmith-Service-Nashville-TN-15601541,All Around Locksmith Service,(615) 932-6860,615 Gallatin Ave,Nashville,Tennessee,TN,37206-3224
Locksmiths,"Nashville, TN",https://411.info/business/Emergency-A-Always-Available-24-Hour-Locksmith-Nashville-TN-14590949,Emergency A Always Available 24 Hour Locksmith,(615) 262-0466,3935 Gallatin Pike,Nashville,Tennessee,TN,37216-2432
Locksmiths,"Nashville, TN",https://411.info/business/All-My-Keys-Locksmith-Service-Nashville-TN-14591745,All My Keys Locksmith Service,(615) 932-6960,1104 Murfreesboro Pike,Nashville,Tennessee,TN,37217-2221
Locksmiths,"Nashville, TN",https://411.info/business/Abbe-Locks-24-Locksmith-Nashville-TN-17016569,Abbe Locks 24 Locksmith,(615) 932-2142,110 Grizzard Ave,Nashville,Tennessee,TN,37207-4414
Locksmiths,"Nashville, TN",https://411.info/business/Green-Locksmith-Nashville-TN-17621705,Green Locksmith,(615) 932-6928,106 Rains Ave,Nashville,Tennessee,TN,37203-5329
Locksmiths,"Nashville, TN",https://411.info/business/Locks-1-2-3-Locksmith-Nashville-TN-15198012,Locks 1 2 3 Locksmith,(615) 932-5107,4457 Pecan Valley Rd,Nashville,Tennessee,TN,37218-4214
Locksmiths,"Nashville, TN",https://411.info/business/24-7-Available-A-Locksmith-Nashville-TN-9828102,24 7 Available A Locksmith,(615) 932-2205,400 Blackman Rd,Nashville,Tennessee,TN,37211-4338
Locksmiths,"Nashville, TN",https://411.info/business/All-Day-24-Hour-Locksmith-Nashville-TN-901417,All Day 24 Hour Locksmith,(615) 873-2177,1 Buchi Ct,Nashville,Tennessee,TN,37204-2824
Locksmiths,"Nashville, TN",https://411.info/business/A-to-Z-24-Hour-Locksmith-Nashville-TN-5069561,A to Z 24 Hour Locksmith,(615) 932-2145,120 Ewing Dr,Nashville,Tennessee,TN,37207-2921
Locksmiths,"Nashville, TN",https://411.info/business/1a1-Lock-Locksmith-24-Hours-Nashville-TN-21246154,1a1 Lock & Locksmith 24 Hours,(615) 925-3870,2244 Murfreesboro Pike,Nashville,Tennessee,TN,37217-3313
Locksmiths,"Nashville, TN",https://411.info/business/A-to-Z-24-Hour-Locksmith-Nashville-TN-6258317,A to Z 24 Hour Locksmith,(615) 932-5124,8017 Montcastle Dr,Nashville,Tennessee,TN,37221-6403
Locksmiths,"Nashville, TN",https://411.info/business/24-7-Available-A-Locksmith-Nashville-TN-3282850,24 7 Available A Locksmith,(615) 932-2120,3501 Byron Ave,Nashville,Tennessee,TN,37205-2502
Locksmiths,"Nashville, TN",https://411.info/business/Astorga-The-Locksmith-Nashville-TN-26358336,Astorga The Locksmith,(615) 679-3919,5920 Charlotte Pike,Nashville,Tennessee,TN,37209-3104
Locksmiths,"Nashville, TN",https://411.info/business/Emergency-1-Locksmith-Nashville-TN-26414582,Emergency 1 Locksmith,(615) 724-3938,3408 West End Ave,Nashville,Tennessee,TN,37203-1036
Locksmiths,"Nashville, TN",https://411.info/business/Any-1-2-3-24-7-Locksmith-Service-Nashville-TN-26418882,Any 1 2 3 24 7 Locksmith Service,(615) 724-6654,493 Humphreys St,Nashville,Tennessee,TN,37203-4843
Locksmiths,"Nashville, TN",https://411.info/business/Mobile-Locksmith-Nashville-TN-26483900,Mobile Locksmith,(615) 928-4806,84 Thompson Ln,Nashville,Tennessee,TN,37211-2548
Locksmiths,"Nashville, TN",https://411.info/business/Dynamite-Locksmith-Nashville-TN-26496150,Dynamite Locksmith,(615) 928-4833,798 Berry Rd,Nashville,Tennessee,TN,37204-3063
Locksmiths,"Nashville, TN",https://411.info/business/Ferguson-Locksmith-Nashville-TN-26510828,Ferguson Locksmith,(615) 928-4813,4800 Belmont Park Ter,Nashville,Tennessee,TN,37215-4422
Locksmiths,"Nashville, TN",https://411.info/business/Rainbow-Locksmith-Nashville-TN-26513238,Rainbow Locksmith,(615) 928-4941,467 Bell Rd,Nashville,Tennessee,TN,37217-3813
Locksmiths,"Nashville, TN",https://411.info/business/Armstrong-Locksmith-Inc-Nashville-TN-29106152,Armstrong Locksmith Inc,(615) 625-8000,"424 Church St, Ste 2000",Nashville,Tennessee,TN,37219-3304
Locksmiths,"Nashville, TN",https://411.info/business/Carambola-Locksmith-Nashville-TN-27425648,Carambola Locksmith,(615) 981-8872,900 Rosa L Parks Blvd,Nashville,Tennessee,TN,37208-2600
Locksmiths,"Nashville, TN",https://411.info/business/Avant-Locksmith-Nashville-TN-27430166,Avant Locksmith,(615) 981-8833,921 2nd Ave N,Nashville,Tennessee,TN,37201-1086
Locksmiths,"Nashville, TN",https://411.info/business/General-Locksmith-Nashville-TN-27451352,General Locksmith,(615) 981-8203,2131 Abbott Martin Rd,Nashville,Tennessee,TN,37215-2699
Locksmiths,"Nashville, TN",https://411.info/business/Zen-Locksmith-Nashville-TN-27461680,Zen Locksmith,(615) 981-8834,500 Church St,Nashville,Tennessee,TN,37219-2320
Locksmiths,"Nashville, TN",https://411.info/business/Paige-Locksmith-Nashville-TN-27477036,Paige Locksmith,(615) 981-8291,4106 Hillsboro Pike,Nashville,Tennessee,TN,37215-2769
Locksmiths,"Nashville, TN",https://411.info/business/Campbell-Locksmith-Nashville-TN-27487922,Campbell Locksmith,(615) 981-8897,421 Hart Ln,Nashville,Tennessee,TN,37216-2026
Locksmiths,"Nashville, TN",https://411.info/business/Garner-Locksmith-Services-Nashville-TN-25535166,Garner Locksmith Services,(615) 679-3883,407 Lafayette St,Nashville,Tennessee,TN,37203-4222
Locksmiths,"Nashville, TN",https://411.info/business/Malcolm-Local-Locksmith-Nashville-TN-25548138,Malcolm Local Locksmith,(615) 679-3907,2020 West End Ave,Nashville,Tennessee,TN,37203
Locksmiths,"Nashville, TN",https://411.info/business/Dickinson-Locksmith-Services-Nashville-TN-25606796,Dickinson Locksmith Services,(615) 258-5938,105 Ewing Dr,Nashville,Tennessee,TN,37207-2920
Locksmiths,"Nashville, TN",https://411.info/business/15-Min-24-7-Days-All-Lock-Service-Locksmith-Nashville-TN-19189251,15 Min 24 7 Days All Lock Service Locksmith,(615) 340-6016,1712 West End Ave,Nashville,Tennessee,TN,37203-2602
Locksmiths,"Nashville, TN",https://411.info/business/Nashville-Locksmith-Nashville-TN-21831746,Nashville Locksmith,(615) 970-3027,1200 Buchanan St,Nashville,Tennessee,TN,37208-1402
Locksmiths,"Nashville, TN",https://411.info/business/1a1-Locksmith-Locksmith-Nashville-TN-21832054,1a1 Locksmith Locksmith,(615) 970-3107,3037 Dickerson Pike,Nashville,Tennessee,TN,37207-2901
Locksmiths,"Nashville, TN",https://411.info/business/1a1-Locksmith-Locksmith-Nashville-TN-21832112,1a1 Locksmith Locksmith,(615) 970-3097,1 White Bridge Pike,Nashville,Tennessee,TN,37201
Locksmiths,"Nashville, TN",https://411.info/business/Locksmith-Nashville-TN-23706822,Locksmith,(615) 724-6882,90 Oceanside Dr,Nashville,Tennessee,TN,37204-2360
Locksmiths,"Nashville, TN",https://411.info/business/Nashville-Mobile-Locksmith-Store-Nashville-TN-30332570,Nashville Mobile Locksmith Store,(615) 393-6269,507 12th Ave S,Nashville,Tennessee,TN,37203-4027
Locksmiths,"Nashville, TN",https://411.info/business/Patriot-Locksmith-Inc-Nashville-TN-25426428,Patriot Locksmith Inc,(615) 932-6903,3121 Dickerson Pike,Nashville,Tennessee,TN,37207-2903
Locksmiths,"Nashville, TN",https://411.info/business/1A1-Lock-and-Locksmith-24-Hours-Nashville-TN-20320778,1A1 Lock and Locksmith 24 Hours,(615) 925-3889,3130 Clarksville Pike,Nashville,Tennessee,TN,37218-2810
Locksmiths,"Nashville, TN",https://411.info/business/24-A-Always-Available-Locksmith-Nashville-TN-19291730,24 A Always Available Locksmith,(615) 226-6077,123 Ewing Dr,Nashville,Tennessee,TN,37207-2960
Locksmiths,"Nashville, TN",https://411.info/business/Online-Locksmith-Service-All-Nashville-Nashville-TN-18025642,Online Locksmith Service All Nashville,(615) 932-6793,2210 Crestmoor Rd,Nashville,Tennessee,TN,37215-2026
Locksmiths,"Nashville, TN",https://411.info/business/Music-City-Locksmith-Nashville-TN-18227746,Music City Locksmith,(615) 256-7907,185 2nd Ave,Nashville,Tennessee,TN,37201-1903
Locksmiths,"Nashville, TN",https://411.info/business/Locksmith-Inc-Nashville-TN-19395955,Locksmith Inc,(615) 925-3882,1100 6th Ave,Nashville,Tennessee,TN,37208-2649
Locksmiths,"Nashville, TN",https://411.info/business/A1-24-Hours-Locksmith-Nashville-TN-19909819,A1 24 Hours Locksmith,(615) 925-3899,8001 Hooten Hows Rd,Nashville,Tennessee,TN,37221-1009
Locksmiths,"Nashville, TN",https://411.info/business/A-1-Locksmith-Service-Nashville-TN-20115819,A-1 Locksmith Service,(615) 932-6941,3410 Gallatin Pike,Nashville,Tennessee,TN,37216-2602
Locksmiths,"Nashville, TN",https://411.info/business/Locks-1-2-3-Locksmith-Nashville-TN-18837355,Locks 1 2 3 Locksmith,(615) 932-2415,1443 Ardee Ave,Nashville,Tennessee,TN,37216-2803
Locksmiths,"Nashville, TN",https://411.info/business/24-A-Always-Available-Locksmith-Nashville-TN-20423267,24 A Always Available Locksmith,(615) 868-6998,3976 Dickerson Pike,Nashville,Tennessee,TN,37207-1304
Locksmiths,"Nashville, TN",https://411.info/business/24-Locksmith-Nashville-TN-18025635,24 Locksmith,(615) 932-2269,4404 Westlawn Dr,Nashville,Tennessee,TN,37209-4924
Locksmiths,"Nashville, TN",https://411.info/business/0-And-0-Locksmith-0-0-Emergency-Loc-Nashville-TN-18025647,0 And 0 Locksmith 0 & 0 Emergency Loc,(615) 932-6979,6604 Charlotte Pike,Nashville,Tennessee,TN,37209-4202
Locksmiths,"Nashville, TN",https://411.info/business/A-A-Locksmith-Nashville-TN-17419363,A & A Locksmith,(615) 297-7774,3501 Charlotte Ave,Nashville,Tennessee,TN,37209-3936
Locksmiths,"Nashville, TN",https://411.info/business/24-Hours-7-Days-A-Week-Locksmith-Nashville-TN-16409803,24 Hours 7 Days A Week Locksmith,(615) 932-6845,2021 Fatherland St,Nashville,Tennessee,TN,37206-2033
Locksmiths,"Nashville, TN",https://411.info/business/Locksmith-Inc-Nashville-TN-19807164,Locksmith Inc,(615) 925-3920,7068 Charlotte Pike,Nashville,Tennessee,TN,37209-4210
Locksmiths,"Nashville, TN",https://411.info/business/Abare-All-Day-Locksmith-Nashville-TN-19189252,Abare All Day Locksmith,(615) 340-6841,1042 Demonbreun St,Nashville,Tennessee,TN,37203
Locksmiths,"Nashville, TN",https://411.info/business/0-1-A-1-Locksmith-Nashville-TN-19039332,0 1 A 1 Locksmith,(615) 932-6745,4004 Hillsboro Pike,Nashville,Tennessee,TN,37215-2791
Locksmiths,"Nashville, TN",https://411.info/business/Locksmith-Inc-Nashville-TN-19498660,Locksmith Inc,(615) 925-3396,1100 6th Ave,Nashville,Tennessee,TN,37208-2649
Locksmiths,"Nashville, TN",https://411.info/business/Emergency-Locksmith-Nashville-TN-19909821,Emergency Locksmith,(615) 925-3923,416 Mercomatic Dr,Nashville,Tennessee,TN,37209-2911
Locksmiths,"Nashville, TN",https://411.info/business/Dave-Local-Locksmith-Nashville-TN-16814184,Dave Local Locksmith,(615) 932-6785,800 Broadway,Nashville,Tennessee,TN,37203-3835
Locksmiths,"Nashville, TN",https://411.info/business/23-Hr-Locksmith-Nashville-TN-17823660,23 Hr Locksmith,(615) 932-6949,3046 Dickerson Pike,Nashville,Tennessee,TN,37207-2902
Locksmiths,"Nashville, TN",https://411.info/business/24-Emergency-Locksmith-Nashville-TN-18228528,24 Emergency Locksmith,(615) 873-2971,2750 River Bend Dr,Nashville,Tennessee,TN,37214-1114
Locksmiths,"Nashville, TN",https://411.info/business/AAA-Locksmith-Nashville-TN-18228624,AAA Locksmith,(615) 932-6972,2527 Stinson Rd,Nashville,Tennessee,TN,37214-2128
Locksmiths,"Nashville, TN",https://411.info/business/House-Locksmith-Nashville-TN-18430180,House Locksmith,(615) 932-6791,411 W Thompson Ln,Nashville,Tennessee,TN,37211-2212
Locksmiths,"Nashville, TN",https://411.info/business/Locksmith-Inc-Nashville-TN-20320780,Locksmith Inc,(615) 925-3906,209 10th Ave,Nashville,Tennessee,TN,37203-4144
Locksmiths,"Nashville, TN",https://411.info/business/AM-PM-Locksmith-Nashville-TN-17621704,AM PM Locksmith,(615) 932-6781,601 Commerce St,Nashville,Tennessee,TN,37203-3707
Locksmiths,"Nashville, TN",https://411.info/business/A1-24-Hours-Locksmith-Nashville-TN-20423313,A1 24 Hours Locksmith,(615) 925-3397,3500 Gallatin Pike,Nashville,Tennessee,TN,37216-2604
Locksmiths,"Nashville, TN",https://411.info/business/Soutern-Locksmith-Nashville-TN-17016575,Soutern Locksmith,(615) 932-6951,3105 Dickerson Pike,Nashville,Tennessee,TN,37207-2903
Locksmiths,"Nashville, TN",https://411.info/business/A-Always-Available-Locksmith-Nashville-TN-21352614,A Always Available Locksmith,(615) 925-3910,303 E Thompson Ln,Nashville,Tennessee,TN,37211-2615
Locksmiths,"Nashville, TN",https://411.info/business/Locksmith-Inc-Nashville-TN-20938398,Locksmith Inc,(615) 925-3914,433 Opry Mills Dr,Nashville,Tennessee,TN,37214-2440
Locksmiths,"Nashville, TN",https://411.info/business/24-Anytime-Locksmith-Nashville-TN-15601535,24 Anytime Locksmith,(615) 932-2139,2104 Eastland Ave,Nashville,Tennessee,TN,37206-1707
Locksmiths,"Nashville, TN",https://411.info/business/Emergency-Locksmith-Nashville-TN-21144198,Emergency Locksmith,(615) 925-3331,416 Mercomatic Dr,Nashville,Tennessee,TN,37209-2911
Locksmiths,"Nashville, TN",https://411.info/business/AM-PM-Locksmith-Nashville-TN-15399678,AM PM Locksmith,(615) 932-6933,1999 Nolensville Pike,Nashville,Tennessee,TN,37211-2018
Locksmiths,"Nashville, TN",https://411.info/business/A-24-Hour-Locksmith-Nashville-TN-18636062,A 24 Hour Locksmith,(615) 932-2128,211 N 9th St,Nashville,Tennessee,TN,37206-4025
Locksmiths,"Nashville, TN",https://411.info/business/Goog-Locksmith-Nashville-TN-18636074,Goog Locksmith,(615) 932-6980,3955 Nolensville Pike,Nashville,Tennessee,TN,37211-4202
Locksmiths,"Nashville, TN",https://411.info/business/Abbe-Locks-24-Locksmith-Nashville-TN-14793826,Abbe Locks 24 Locksmith,(615) 932-5443,2 Morningside,Nashville,Tennessee,TN,37215-5831
Locksmiths,"Nashville, TN",https://411.info/business/Emergency-Locksmith-Nashville-TN-20835582,Emergency Locksmith,(615) 925-3406,4201 Clarksville Pike,Nashville,Tennessee,TN,37218-1501
Locksmiths,"Nashville, TN",https://411.info/business/Best-In-Town-Locksmith-Service-Nashville-TN-15601542,Best In Town Locksmith Service,(615) 932-6948,2631 Nolensville Pike,Nashville,Tennessee,TN,37211-2216
Locksmiths,"Nashville, TN",https://411.info/business/Road-Service-Locksmith-Nashville-TN-18837362,Road Service Locksmith,(615) 932-6954,212 Thompson Ln,Nashville,Tennessee,TN,37211-2414
Locksmiths,"Nashville, TN",https://411.info/business/Any-Local-Locksmith-Nashville-TN-14994979,Any Local Locksmith,(615) 932-5106,3916 Creekway Ct,Nashville,Tennessee,TN,37218-1805
Locksmiths,"Nashville, TN",https://411.info/business/24-Hour-Locksmith-Nashville-TN-21040738,24 Hour Locksmith,(615) 925-3400,3210 Nolensville Pike,Nashville,Tennessee,TN,37211-2908
Locksmiths,"Nashville, TN",https://411.info/business/Get-A-Locksmith-Nashville-TN-14390499,Get A Locksmith,(615) 932-6843,6637 Jocelyn Hollow Rd,Nashville,Tennessee,TN,37205-3910
Locksmiths,"Nashville, TN",https://411.info/business/0-1-A-1-Locksmith-Nashville-TN-14994986,0 1 A 1 Locksmith,(615) 932-6741,5631 Charlotte Pike,Nashville,Tennessee,TN,37209-3212
Locksmiths,"Nashville, TN",https://411.info/business/East-Way-Locksmith-Nashville-TN-17420149,East Way Locksmith,(615) 932-6935,1618 Cahal Ave,Nashville,Tennessee,TN,37206-1620
Locksmiths,"Nashville, TN",https://411.info/business/0-7-Days-Emergency-Locksmith-Nashville-TN-19039337,0 7 Days Emergency Locksmith,(615) 932-6976,6427 Henry Ford Dr,Nashville,Tennessee,TN,37209-1619
Locksmiths,"Nashville, TN",https://411.info/business/Locks-24-Locksmith-Nashville-TN-18430185,Locks 24 Locksmith,(615) 932-6997,500 Cabot Pl,Nashville,Tennessee,TN,37221-3007
Locksmiths,"Nashville, TN",https://411.info/business/Locksmith-All-Night-Nashville-TN-12212960,Locksmith All Night,(615) 932-2141,101 Gordon Ter,Nashville,Tennessee,TN,37207-4533
Locksmiths,"Nashville, TN",https://411.info/business/Emergency-Locksmith-Nashville-TN-20629264,Emergency Locksmith,(615) 925-3909,4533 Nolensville Pike,Nashville,Tennessee,TN,37211-4732
Locksmiths,"Nashville, TN",https://411.info/business/15-Minute-Respond-Locksmith-Service-Nashville-TN-9231289,15 Minute Respond Locksmith Service,(615) 340-6003,2121 Blakemore Ave,Nashville,Tennessee,TN,37212-3505
Locksmiths,"Nashville, TN",https://411.info/business/24-7-Available-A-Locksmith-Nashville-TN-14000360,24 7 Available A Locksmith,(615) 873-2961,268 Sunrise Ave,Nashville,Tennessee,TN,37211-2904
Locksmiths,"Nashville, TN",https://411.info/business/Locksmith-Nashville-TN-12212965,Locksmith,(615) 932-6660,1908 West End Ave,Nashville,Tennessee,TN,37203-2309
Locksmiths,"Nashville, TN",https://411.info/business/A-to-Z-24-Hour-Locksmith-Nashville-TN-10424945,A to Z 24 Hour Locksmith,(615) 932-2421,1207 Borowood Dr,Nashville,Tennessee,TN,37217-3302
Locksmiths,"Nashville, TN",https://411.info/business/1-Hour-All-Day-A-Locksmith-Nashville-TN-8043957,1 Hour All Day A Locksmith,(615) 873-2973,3125 Harborwood Dr,Nashville,Tennessee,TN,37214-4365
Locksmiths,"Nashville, TN",https://411.info/business/Goog-Locksmith-Nashville-TN-14793833,Goog Locksmith,(615) 932-6926,1918 Division St,Nashville,Tennessee,TN,37203-2722
Locksmiths,"Nashville, TN",https://411.info/business/Locksmith-Inc-Nashville-TN-19601422,Locksmith Inc,(615) 925-3926,2720 Old Lebanon Rd,Nashville,Tennessee,TN,37214-2531
Locksmiths,"Nashville, TN",https://411.info/business/1A1-Lock-and-Locksmith-24-Hours-Nashville-TN-21246153,1A1 Lock and Locksmith 24 Hours,(615) 925-3402,7601 Highway 70,Nashville,Tennessee,TN,37221-1853
Locksmiths,"Nashville, TN",https://411.info/business/A-A-Locksmith-Nashville-TN-19806902,A & A Locksmith,(615) 525-7744,3501 Charlotte Ave,Nashville,Tennessee,TN,37209-3936
Locksmiths,"Nashville, TN",https://411.info/business/Locksmith-All-Night-Nashville-TN-13405874,Locksmith All Night,(615) 932-2463,2110 Jade Dr,Nashville,Tennessee,TN,37210-3308
Locksmiths,"Nashville, TN",https://411.info/business/24-Hour-Locksmith-Nashville-TN-19498658,24 Hour Locksmith,(615) 925-3353,1228 Ardee Ave,Nashville,Tennessee,TN,37216-2504
Locksmiths,"Nashville, TN",https://411.info/business/Locksmith-Nashville-TN-5069567,Locksmith,(615) 932-6758,2745 Lebanon Pike,Nashville,Tennessee,TN,37214-2503
Locksmiths,"Nashville, TN",https://411.info/business/Abare-All-Day-Locksmith-Nashville-TN-17823653,Abare All Day Locksmith,(615) 932-2462,2101 Lyle Ct,Nashville,Tennessee,TN,37210-4822
Locksmiths,"Nashville, TN",https://411.info/business/2-Locksmiths-And-A-Truck-Nashville-TN-14591744,2 Locksmiths And A Truck,(615) 932-6848,112 2nd Ave,Nashville,Tennessee,TN,37201-1909
Locksmiths,"Nashville, TN",https://411.info/business/A-Always-Available-Locksmith-Nashville-TN-21040733,A Always Available Locksmith,(615) 925-3350,303 E Thompson Ln,Nashville,Tennessee,TN,37211-2615
Locksmiths,"Nashville, TN",https://411.info/business/A1-24-Hours-Locksmith-Nashville-TN-21559525,A1 24 Hours Locksmith,(615) 925-3329,1801 West End Ave,Nashville,Tennessee,TN,37203-2526
Locksmiths,"Nashville, TN",https://411.info/business/A-Always-Available-Locksmith-Nashville-TN-21144201,A Always Available Locksmith,(615) 925-3912,3909 Hillsboro Pike,Nashville,Tennessee,TN,37215-2716
Locksmiths,"Nashville, TN",https://411.info/business/A-B-C-Twenty-Four-Hour-Locksmith-Nashville-TN-3282854,A B C Twenty Four Hour Locksmith,(615) 932-2482,3011 Harlin Dr,Nashville,Tennessee,TN,37211-2306
Locksmiths,"Nashville, TN",https://411.info/business/24-Anytime-Locksmith-Nashville-TN-14591737,24 Anytime Locksmith,(615) 932-2919,1020 13th Ave,Nashville,Tennessee,TN,37212-2404
Locksmiths,"Nashville, TN",https://411.info/business/Day-And-Night-Locksmith-Service-Nashville-TN-15803713,Day And Night Locksmith Service,(615) 932-6842,992 Davidson Dr,Nashville,Tennessee,TN,37205-1051
Locksmiths,"Nashville, TN",https://411.info/business/1-Always-A-Emerg-Locksmith-Nashville-TN-8044260,1 Always A Emerg Locksmith,(615) 932-2193,507 Buchanan St,Nashville,Tennessee,TN,37208-1609
Locksmiths,"Nashville, TN",https://411.info/business/1-Always-A-Emerg-Locksmith-Nashville-TN-2090965,1 Always A Emerg Locksmith,(615) 932-2917,5900 Scout Dr,Nashville,Tennessee,TN,37211-7906
Locksmiths,"Nashville, TN",https://411.info/business/Locksmith-Nashville-TN-23679222,Locksmith,(615) 724-6160,1800 Stratford Ave,Nashville,Tennessee,TN,37216-4034
Locksmiths,"Nashville, TN",https://411.info/business/0-0-24-7-Andy-s-Locksmith-Nashville-TN-23679784,0 & 0 24 7 Andy's Locksmith,(615) 724-6763,200 Commerce St,Nashville,Tennessee,TN,37201-1807
Locksmiths,"Nashville, TN",https://411.info/business/A-1-Locksmith-Inc-Nashville-TN-23986526,A-1 Locksmith Inc,(615) 832-1919,"3005 Nolensville Pike, Ste B",Nashville,Tennessee,TN,37211-2342
Locksmiths,"Nashville, TN",https://411.info/business/Nashville-Locksmith-Shop-Inc-Nashville-TN-25427946,Nashville Locksmith Shop Inc,(615) 932-6909,301 Woodland St,Nashville,Tennessee,TN,37213-4200
Locksmiths,"Nashville, TN",https://411.info/business/Amezquita-Locksmith-Shop-Nashville-TN-26358596,Amezquita Locksmith Shop,(615) 258-5882,2501 Gallatin Ave,Nashville,Tennessee,TN,37206-3215
Locksmiths,"Nashville, TN",https://411.info/business/Arrendondo-Locksmiths-Express-Nashville-TN-26363588,Arrendondo Locksmiths Express,(615) 928-3015,534 Maplewood Ln,Nashville,Tennessee,TN,37216-1508
Locksmiths,"Nashville, TN",https://411.info/business/Alegria-Locksmith-Nashville-TN-26367566,Alegria Locksmith,(615) 679-3856,1509 Dr Db Todd Jr Blvd,Nashville,Tennessee,TN,37208-2426
Locksmiths,"Nashville, TN",https://411.info/business/Bahena-Magic-Locksmith-Nashville-TN-26370052,Bahena Magic Locksmith,(615) 258-5893,704 Main St,Nashville,Tennessee,TN,37206-3606
Locksmiths,"Nashville, TN",https://411.info/business/Authentic-Locksmith-Nashville-TN-26491492,Authentic Locksmith,(615) 928-4793,333 Commerce St,Nashville,Tennessee,TN,37201-1826
Locksmiths,"Nashville, TN",https://411.info/business/Faulkner-Locksmith-Nashville-TN-26491764,Faulkner Locksmith,(615) 928-4835,3 Thorndale Ct,Nashville,Tennessee,TN,37215
Locksmiths,"Nashville, TN",https://411.info/business/Valley-Locksmith-Nashville-TN-26498532,Valley Locksmith,(615) 928-4802,630 Croley Dr,Nashville,Tennessee,TN,37209-1714
Locksmiths,"Nashville, TN",https://411.info/business/Centro-Locksmith-Nashville-TN-27385106,Centro Locksmith,(615) 981-8821,4243 Harding Pike,Nashville,Tennessee,TN,37205-2006
Locksmiths,"Nashville, TN",https://411.info/business/Morongo-Locksmith-Nashville-TN-27386072,Morongo Locksmith,(615) 981-8837,405 12th Ave S,Nashville,Tennessee,TN,37203-4007
Locksmiths,"Nashville, TN",https://411.info/business/Mobile-Locksmith-Service-Nashville-TN-26130704,Mobile Locksmith Service,(615) 724-6852,10 Arcade,Nashville,Tennessee,TN,37219-1906
Locksmiths,"Nashville, TN",https://411.info/business/Armendariz-Commercial-Locksmith-Nashville-TN-26346700,Armendariz Commercial Locksmith,(615) 258-5847,50 Music Sq S,Nashville,Tennessee,TN,37203
Locksmiths,"Nashville, TN",https://411.info/business/Emergency-1-Locksmith-Nashville-TN-26409508,Emergency 1 Locksmith,(615) 724-6348,2200 Brick Church Pike,Nashville,Tennessee,TN,37207-4402
Locksmiths,"Nashville, TN",https://411.info/business/Royal-Locksmith-Nashville-TN-26462570,Royal Locksmith,(615) 928-4832,1712 West End Ave,Nashville,Tennessee,TN,37203-2602
Locksmiths,"Nashville, TN",https://411.info/business/Aaland-24-Hour-Locksmith-Nashville-TN-21456079,Aaland 24 Hour Locksmith,(615) 932-2420,420 Arbor Creek Blvd,Nashville,Tennessee,TN,37217-5049
Locksmiths,"Nashville, TN",https://411.info/business/Black-Car-Key-Locksmith-Nashville-TN-25523852,Black Car Key Locksmith,(615) 679-3858,208 Broadway,Nashville,Tennessee,TN,37201-2108
Locksmiths,"Nashville, TN",https://411.info/business/Rahman-Automotive-Locksmith-Nashville-TN-25525226,Rahman Automotive Locksmith,(615) 564-7153,15115 Old Hickory Blvd,Nashville,Tennessee,TN,37211-6584
Locksmiths,"Nashville, TN",https://411.info/business/Raggett-Locksmith-Services-Nashville-TN-25526762,Raggett Locksmith Services,(615) 564-7152,15124 Old Hickory Blvd,Nashville,Tennessee,TN,37211-6758
Locksmiths,"Nashville, TN",https://411.info/business/Thomas-Locksmith-Services-Nashville-TN-25528876,Thomas Locksmith Services,(615) 679-3986,921 30th Ave N,Nashville,Tennessee,TN,37209-2613
Locksmiths,"Nashville, TN",https://411.info/business/Gordon-Commercial-Locksmith-Nashville-TN-25546842,Gordon Commercial Locksmith,(615) 679-3887,1621 Church St,Nashville,Tennessee,TN,37203-2919
Locksmiths,"Nashville, TN",https://411.info/business/Akea-Locksmith-Nashville-TN-27444938,Akea Locksmith,(615) 981-8841,100 Powell Pl,Nashville,Tennessee,TN,37204-3602
Locksmiths,"Nashville, TN",https://411.info/business/Casablanca-Locksmith-Nashville-TN-27449332,Casablanca Locksmith,(615) 981-8835,329 Broadway,Nashville,Tennessee,TN,37201-2005
Locksmiths,"Nashville, TN",https://411.info/business/Cyrus-Locksmith-Nashville-TN-27451988,Cyrus Locksmith,(615) 981-8889,4040 Nolensville Pike,Nashville,Tennessee,TN,37211-4516
Locksmiths,"Nashville, TN",https://411.info/business/Moccasin-Locksmith-Nashville-TN-27453528,Moccasin Locksmith,(615) 981-8869,3053 Brick Church Pike,Nashville,Tennessee,TN,37207-3214
Locksmiths,"Nashville, TN",https://411.info/business/Nova-Locksmith-Nashville-TN-27457568,Nova Locksmith,(615) 981-8201,323 Opry Mills Dr,Nashville,Tennessee,TN,37214-2436
Locksmiths,"Nashville, TN",https://411.info/business/Surety-Locksmith-Nashville-TN-27482286,Surety Locksmith,(615) 981-8949,1605 County Hospital Rd,Nashville,Tennessee,TN,37218-2503
Locksmiths,"Nashville, TN",https://411.info/business/Aggressive-Locksmith-Nashville-TN-27487096,Aggressive Locksmith,(615) 981-8877,636 Old Hickory Blvd,Nashville,Tennessee,TN,37209-5125
Locksmiths,"Nashville, TN",https://411.info/business/1-Locksmith-Emergency-Nashville-TN-21831776,1 Locksmith Emergency,(615) 970-3142,5814 Nolensville Pike,Nashville,Tennessee,TN,37211-6521
Locksmiths,"Nashville, TN",https://411.info/business/Godiva-Locksmith-Nashville-TN-27424024,Godiva Locksmith,(615) 981-8826,601 Gallatin Ave,Nashville,Tennessee,TN,37206-3224
Locksmiths,"Nashville, TN",https://411.info/business/Carlos-Locksmith-Nashville-TN-29411266,Carlos Locksmith,(615) 497-6788,,Nashville,Tennessee,TN,37201
Locksmiths,"Nashville, TN",https://411.info/business/A-Always-Available-Locksmith-Nashville-TN-19189603,A Always Available Locksmith,(615) 925-3898,2421 Lebanon Pike,Nashville,Tennessee,TN,37214-2412
Locksmiths,"Nashville, TN",https://411.info/business/Locks-1-2-3-Locksmith-Nashville-TN-16005711,Locks 1 2 3 Locksmith,(615) 932-2127,300 Manchester Ave,Nashville,Tennessee,TN,37206-2424
Locksmiths,"Nashville, TN",https://411.info/business/A-Always-Available-Locksmith-Nashville-TN-21246151,A Always Available Locksmith,(615) 925-3324,15590 Old Hickory Blvd,Nashville,Tennessee,TN,37211-7331
Locksmiths,"Nashville, TN",https://411.info/business/24-Hour-Locksmith-Nashville-TN-21040731,24 Hour Locksmith,(615) 925-3326,715 Youngs Ln,Nashville,Tennessee,TN,37207-4825
Locksmiths,"Nashville, TN",https://411.info/business/1a1-Lock-Locksmith-24-Hours-Nashville-TN-19292191,1a1 Lock & Locksmith 24 Hours,(615) 925-3877,2516 Gallatin Ave,Nashville,Tennessee,TN,37206-3216
Locksmiths,"Nashville, TN",https://411.info/business/20-Dollars-Service-Call-Locksmith-Nashville-TN-18636071,20 Dollars Service Call Locksmith,(615) 932-6959,1109 Murfreesboro Pike,Nashville,Tennessee,TN,37217-2212
Locksmiths,"Nashville, TN",https://411.info/business/1-After-Drinking-Locksmith-Rescue-Nashville-TN-17823651,1 After Drinking Locksmith Rescue,(615) 932-2018,2608 Franklin Pike,Nashville,Tennessee,TN,37204-3008
Locksmiths,"Nashville, TN",https://411.info/business/0-And-0-Locksmith-0-And-0-Emergency-L-Nashville-TN-15399675,0 And 0 Locksmith 0 And 0 Emergency L,(615) 932-6776,200 James Robertson Pkwy,Nashville,Tennessee,TN,37201-1202
Locksmiths,"Nashville, TN",https://411.info/business/A-24-Hour-Locksmith-Nashville-TN-17218439,A 24 Hour Locksmith,(615) 932-2271,500 Morrow Rd,Nashville,Tennessee,TN,37209
Locksmiths,"Nashville, TN",https://411.info/business/Get-A-Locksmith-Nashville-TN-17621707,Get A Locksmith,(615) 932-6956,3930 Clarksville Pike,Nashville,Tennessee,TN,37218-1910
Locksmiths,"Nashville, TN",https://411.info/business/24-7-A-Locksmith-Nashville-TN-18430175,24 7 A Locksmith,(615) 932-2116,507 Lynnwood Blvd,Nashville,Tennessee,TN,37205-3842
Locksmiths,"Nashville, TN",https://411.info/business/1-866-513-Lock-Locksmith-Nashville-TN-14793831,1 866 513 Lock Locksmith,(615) 932-6851,9 Hermitage Ave,Nashville,Tennessee,TN,37210-2109
Locksmiths,"Nashville, TN",https://411.info/business/Best-Locksmith-Around-Nashville-TN-14994991,Best Locksmith Around,(615) 932-6939,2203 21st Ave,Nashville,Tennessee,TN,37212
Locksmiths,"Nashville, TN",https://411.info/business/A-to-Z-24-Hour-Locksmith-Nashville-TN-12212671,A to Z 24 Hour Locksmith,(615) 873-2178,780 Elysian Fields Rd,Nashville,Tennessee,TN,37204-4433
Locksmiths,"Nashville, TN",https://411.info/business/24-Hour-Locksmith-Nashville-TN-15198015,24 Hour Locksmith,(615) 932-6930,1917 Nolensville Pike,Nashville,Tennessee,TN,37211-2018
Locksmiths,"Nashville, TN",https://411.info/business/1-Always-A-Locksmith-Nashville-TN-15803703,1 Always A Locksmith,(615) 932-2210,518 Croley Dr,Nashville,Tennessee,TN,37209-1772
Locksmiths,"Nashville, TN",https://411.info/business/A-Always-Available-Locksmith-Nashville-TN-19807161,A Always Available Locksmith,(615) 925-3375,365 Opry Mills Dr,Nashville,Tennessee,TN,37214-2438
Locksmiths,"Nashville, TN",https://411.info/business/1a1-Lock-Locksmith-24-Hours-Nashville-TN-19703965,1a1 Lock & Locksmith 24 Hours,(615) 925-3883,6109 Nolensville Pike,Nashville,Tennessee,TN,37211-6812
Locksmiths,"Nashville, TN",https://411.info/business/1a1-Lock-Locksmith-24-Hours-Nashville-TN-20423316,1a1 Lock & Locksmith 24 Hours,(615) 925-3907,3212 West End Ave,Nashville,Tennessee,TN,37203-1333
Locksmiths,"Nashville, TN",https://411.info/business/Emergency-Locksmith-Nashville-TN-21352612,Emergency Locksmith,(615) 925-3897,2124 Portland Ave,Nashville,Tennessee,TN,37212-3602
Locksmiths,"Nashville, TN",https://411.info/business/A-Always-Available-Locksmith-Nashville-TN-20835580,A Always Available Locksmith,(615) 925-3363,2421 Lebanon Pike,Nashville,Tennessee,TN,37214-2412
Locksmiths,"Nashville, TN",https://411.info/business/A1-24-Hours-Locksmith-Nashville-TN-21456072,A1 24 Hours Locksmith,(615) 925-3336,6521 Radcliff Dr,Nashville,Tennessee,TN,37221-3716
Locksmiths,"Nashville, TN",https://411.info/business/Locksmith-Inc-Nashville-TN-21559528,Locksmith Inc,(615) 925-3875,3048 Dickerson Pike,Nashville,Tennessee,TN,37207-2981
Locksmiths,"Nashville, TN",https://411.info/business/A1-24-Hours-Locksmith-Nashville-TN-20115812,A1 24 Hours Locksmith,(615) 925-3349,4649 Nolensville Pike,Nashville,Tennessee,TN,37211-5205
Locksmiths,"Nashville, TN",https://411.info/business/Southern-Locksmith-Nashville-TN-21144204,Southern Locksmith,(615) 932-6798,2116 Hobbs Rd,Nashville,Tennessee,TN,37215-3315
Locksmiths,"Nashville, TN",https://411.info/business/Any-Local-Locksmith-Nashville-TN-14994977,Any Local Locksmith,(615) 932-2122,5001 Hill Place Dr,Nashville,Tennessee,TN,37205-2706
Locksmiths,"Nashville, TN",https://411.info/business/0-And-Zero-Locksmith-Zero-Zero-Emergency-Locksmi-Nashville-TN-14994989,0 And Zero Locksmith Zero & Zero Emergency Locksmi,(615) 932-6925,1300 Lischey Ave,Nashville,Tennessee,TN,37207-5101
Locksmiths,"Nashville, TN",https://411.info/business/1A1-Lock-and-Locksmith-24-Hours-Nashville-TN-20938396,1A1 Lock and Locksmith 24 Hours,(615) 925-3360,812 Briley Pkwy,Nashville,Tennessee,TN,37217
Locksmiths,"Nashville, TN",https://411.info/business/Best-In-Town-Locksmith-Service-Nashville-TN-16005716,Best In Town Locksmith Service,(615) 932-6795,2209 Bandywood Dr,Nashville,Tennessee,TN,37215-2726
Locksmiths,"Nashville, TN",https://411.info/business/24-Hour-Locksmith-Nashville-TN-20320776,24 Hour Locksmith,(615) 925-3871,2500 Gallatin Ave,Nashville,Tennessee,TN,37206-3216
Locksmiths,"Nashville, TN",https://411.info/business/Locksmith-Nashville-TN-2687525,Locksmith,(615) 932-6754,3604 Gallatin Pike,Nashville,Tennessee,TN,37216-2606
Locksmiths,"Nashville, TN",https://411.info/business/24-Anytime-Locksmith-Nashville-TN-16409797,24 Anytime Locksmith,(615) 932-2405,1701 Gale Ln,Nashville,Tennessee,TN,37212-6017
Locksmiths,"Nashville, TN",https://411.info/business/24-Emergency-Locksmith-Nashville-TN-16207893,24 Emergency Locksmith,(615) 932-2130,900 Russell St,Nashville,Tennessee,TN,37206-3715
Locksmiths,"Nashville, TN",https://411.info/business/1-866-513-Lock-Locksmith-Nashville-TN-16207901,1 866 513 Lock Locksmith,(615) 932-6968,4039 Hillsboro Pike,Nashville,Tennessee,TN,37215
Locksmiths,"Nashville, TN",https://411.info/business/24-Emergency-Locksmith-Nashville-TN-18636064,24 Emergency Locksmith,(615) 932-5104,3209 Panorama Dr,Nashville,Tennessee,TN,37218-3122
Locksmiths,"Nashville, TN",https://411.info/business/All-My-Keys-Locksmith-Service-Nashville-TN-17016573,All My Keys Locksmith Service,(615) 932-6844,2009 Sevier St,Nashville,Tennessee,TN,37206-2148
Locksmiths,"Nashville, TN",https://411.info/business/1-24-7-Locksmith-Service-Of-Nashville-Nashville-TN-16814181,1 24 7 Locksmith Service Of Nashville,(615) 932-6684,570 Opry Mills Dr,Nashville,Tennessee,TN,37214-2442
Locksmiths,"Nashville, TN",https://411.info/business/A-24-Hour-Locksmith-Nashville-TN-16611493,A 24 Hour Locksmith,(615) 932-2478,500 Call Hill Pl,Nashville,Tennessee,TN,37211-7923
Locksmiths,"Nashville, TN",https://411.info/business/At-Your-Service-Locksmith-Inc-Nashville-TN-15803001,At Your Service Locksmith Inc,(615) 342-0121,,Nashville,Tennessee,TN,37203
Locksmiths,"Nashville, TN",https://411.info/business/In-Town-Local-Locksmith-Nashville-TN-14390500,In Town Local Locksmith,(615) 932-6857,918 Vine St,Nashville,Tennessee,TN,37203-4653
Locksmiths,"Nashville, TN",https://411.info/business/24-Locksmith-Nashville-TN-14793824,24 Locksmith,(615) 932-2135,1200 Gartland Ave,Nashville,Tennessee,TN,37206-2749
Locksmiths,"Nashville, TN",https://411.info/business/24-Anywhere-Locksmith-Nashville-TN-14793836,24 Anywhere Locksmith,(615) 932-6995,4192 Libble Rd,Nashville,Tennessee,TN,37218-4101
Locksmiths,"Nashville, TN",https://411.info/business/Nashville-Tn-Locksmith-Nashville-TN-15803708,Nashville Tn Locksmith,(615) 932-6679,200 8th Ave,Nashville,Tennessee,TN,37203-3920
Locksmiths,"Nashville, TN",https://411.info/business/A-Always-Available-Locksmith-Nashville-TN-20732798,A Always Available Locksmith,(615) 925-3357,5035 Harding Pl,Nashville,Tennessee,TN,37211-4160
Locksmiths,"Nashville, TN",https://411.info/business/Emergency-Locksmith-Nashville-TN-20526278,Emergency Locksmith,(615) 925-3370,5301 Harding Pike,Nashville,Tennessee,TN,37205-2805
Locksmiths,"Nashville, TN",https://411.info/business/A-Always-Available-Locksmith-Nashville-TN-20629262,A Always Available Locksmith,(615) 925-3892,4243 Harding Pike,Nashville,Tennessee,TN,37205-2006
Locksmiths,"Nashville, TN",https://411.info/business/Best-Buy-Locksmith-Nashville-TN-18430182,Best Buy Locksmith,(615) 932-6938,2160 Nolensville Pike,Nashville,Tennessee,TN,37211-2068
Locksmiths,"Nashville, TN",https://411.info/business/Locksmith-Inc-Nashville-TN-20835578,Locksmith Inc,(615) 925-3328,2720 Old Lebanon Rd,Nashville,Tennessee,TN,37214-2531
Locksmiths,"Nashville, TN",https://411.info/business/A-Always-Available-Locksmith-Nashville-TN-21456077,A Always Available Locksmith,(615) 925-3886,365 Opry Mills Dr,Nashville,Tennessee,TN,37214-2438
Locksmiths,"Nashville, TN",https://411.info/business/Emergency-A-Always-Available-24-Hour-Locksmith-Nashville-TN-19909378,Emergency A Always Available 24 Hour Locksmith,(615) 256-3030,,Nashville,Tennessee,TN,37201
Locksmiths,"Nashville, TN",https://411.info/business/24-A-Always-Available-Locksmith-Nashville-TN-20938182,24 A Always Available Locksmith,(615) 646-3055,7676 Highway 70,Nashville,Tennessee,TN,37221-1705
Locksmiths,"Nashville, TN",https://411.info/business/Emergency-A-Always-Available-24-Hour-Locksmith-Nashville-TN-20320442,Emergency A Always Available 24 Hour Locksmith,(615) 356-8585,6410 Charlotte Pike,Nashville,Tennessee,TN,37209-2970
Locksmiths,"Nashville, TN",https://411.info/business/24-A-Always-Available-Locksmith-Nashville-TN-20525869,24 A Always Available Locksmith,(615) 256-1115,605 8th Ave,Nashville,Tennessee,TN,37203-4102
Locksmiths,"Nashville, TN",https://411.info/business/A1-24-Hours-Locksmith-Nashville-TN-20526285,A1 24 Hours Locksmith,(615) 925-3925,1801 West End Ave,Nashville,Tennessee,TN,37203-2526
Locksmiths,"Nashville, TN",https://411.info/business/Locksmith-Inc-Nashville-TN-20115817,Locksmith Inc,(615) 925-3900,5704 Nolensville Pike,Nashville,Tennessee,TN,37211-6493
Locksmiths,"Nashville, TN",https://411.info/business/24-A-Always-Available-Locksmith-Nashville-TN-21246113,24 A Always Available Locksmith,(615) 876-1454,4003 Clarksville Pike,Nashville,Tennessee,TN,37218-1911
Locksmiths,"Nashville, TN",https://411.info/business/Aaronson-Local-Locksmith-Nashville-TN-7447770,Aaronson Local Locksmith,(615) 932-2149,2500 Dickerson Pike,Nashville,Tennessee,TN,37207-4103
Locksmiths,"Nashville, TN",https://411.info/business/Aaland-24-Hour-Locksmith-Nashville-TN-11617758,Aaland 24 Hour Locksmith,(615) 932-2175,3210 Doverside Dr,Nashville,Tennessee,TN,37207-2463
Locksmiths,"Nashville, TN",https://411.info/business/Aaland-24-Hour-Locksmith-Nashville-TN-15198010,Aaland 24 Hour Locksmith,(615) 932-2458,101 Chestnut St,Nashville,Tennessee,TN,37210
Locksmiths,"Nashville, TN",https://411.info/business/Locksmith-All-Day-Nashville-TN-16005622,Locksmith All Day,(615) 873-2168,205 2nd Ave,Nashville,Tennessee,TN,37201
Locksmiths,"Nashville, TN",https://411.info/business/24-Anywhere-Locksmith-Nashville-TN-15399670,24 Anywhere Locksmith,(615) 932-2268,4300 Dakota Ave,Nashville,Tennessee,TN,37209-3615
Locksmiths,"Nashville, TN",https://411.info/business/ASAP-24-Hour-Locksmith-Nashville-TN-18228614,ASAP 24 Hour Locksmith,(615) 932-2148,1301 Union Ct,Nashville,Tennessee,TN,37207-1766
Locksmiths,"Nashville, TN",https://411.info/business/Locksmith-In-Nashville-Tn-Nashville-TN-17621702,Locksmith In Nashville Tn,(615) 932-6680,2626 Music Valley Dr,Nashville,Tennessee,TN,37214-1208
Locksmiths,"Nashville, TN",https://411.info/business/All-Day-24-Hour-Locksmith-Nashville-TN-14000642,All Day 24 Hour Locksmith,(615) 932-5123,5040 Stonemeade Dr,Nashville,Tennessee,TN,37221-4044
Locksmiths,"Nashville, TN",https://411.info/business/1-866-305-Lock-Locksmith-Nashville-TN-16814186,1 866 305 Lock Locksmith,(615) 932-6853,800 Monroe St,Nashville,Tennessee,TN,37208-2540
Locksmiths,"Nashville, TN",https://411.info/business/In-Town-Local-Locksmith-Nashville-TN-14591742,In Town Local Locksmith,(615) 932-6683,719 Thompson Ln,Nashville,Tennessee,TN,37204-3609
Locksmiths,"Nashville, TN",https://411.info/business/23-Hr-Locksmith-Nashville-TN-16207898,23 Hr Locksmith,(615) 932-6796,4119 Hillsboro Pike,Nashville,Tennessee,TN,37215-2729
Locksmiths,"Nashville, TN",https://411.info/business/Emergency-All-Day-Locksmith-Nashville-TN-12810146,Emergency All Day Locksmith,(615) 932-2216,3000 Charlotte Ave,Nashville,Tennessee,TN,37209-4097
Locksmiths,"Nashville, TN",https://411.info/business/Emergency-Locksmith-Nashville-TN-20732801,Emergency Locksmith,(615) 925-3885,"1900 Richard Jones Rd, Ofc",Nashville,Tennessee,TN,37215-2944
Locksmiths,"Nashville, TN",https://411.info/business/24-7-Available-A-Locksmith-Nashville-TN-5664782,24 7 Available A Locksmith,(615) 932-5108,510 Gay St,Nashville,Tennessee,TN,37219-1211
Locksmiths,"Nashville, TN",https://411.info/business/Aarant-Emergency-Locksmith-Nashville-TN-307446,Aarant Emergency Locksmith,(615) 932-5122,595 Hicks Rd,Nashville,Tennessee,TN,37221-2000
Locksmiths,"Nashville, TN",https://411.info/business/Locks-24-Locksmith-Nashville-TN-15803614,Locks 24 Locksmith,(615) 873-2169,214 Acklen Park Dr,Nashville,Tennessee,TN,37203-1106
Locksmiths,"Nashville, TN",https://411.info/business/1-Always-A-Emerg-Locksmith-Nashville-TN-9233459,1 Always A Emerg Locksmith,(615) 932-5450,301 Rural Hill Ct,Nashville,Tennessee,TN,37217-3815
Locksmiths,"Nashville, TN",https://411.info/business/24-Hour-Locksmith-Nashville-TN-21559530,24 Hour Locksmith,(615) 925-3916,415 Barrywood Dr,Nashville,Tennessee,TN,37211-4305
Locksmiths,"Nashville, TN",https://411.info/business/Locksmith-All-Night-Nashville-TN-6852755,Locksmith All Night,(615) 873-2965,411 Huntington Ridge Dr,Nashville,Tennessee,TN,37211-5921
Locksmiths,"Nashville, TN",https://411.info/business/Locksmith-Nashville-TN-5664787,Locksmith,(615) 932-6772,5418 Charlotte Ave,Nashville,Tennessee,TN,37209-3004
Locksmiths,"Nashville, TN",https://411.info/business/All-Day-24-Hour-Locksmith-Nashville-TN-4473271,All Day 24 Hour Locksmith,(615) 932-2468,225 Wallace Rd,Nashville,Tennessee,TN,37211-4978
Locksmiths,"Nashville, TN",https://411.info/business/Dawn-To-Dark-Locksmith-Service-Nashville-TN-18228621,Dawn To Dark Locksmith Service,(615) 932-6947,3803 Central Ave,Nashville,Tennessee,TN,37205-2435
Locksmiths,"Nashville, TN",https://411.info/business/Aaronson-Local-Locksmith-Nashville-TN-9828104,Aaronson Local Locksmith,(615) 932-2461,1033 2nd Ave,Nashville,Tennessee,TN,37210-2619
Locksmiths,"Nashville, TN",https://411.info/business/A1-24-Hours-Locksmith-Nashville-TN-19292189,A1 24 Hours Locksmith,(615) 925-3374,533 Castlegate Dr,Nashville,Tennessee,TN,37217-4266
Locksmiths,"Nashville, TN",https://411.info/business/1-Always-A-Emerg-Locksmith-Nashville-TN-5069564,1 Always A Emerg Locksmith,(615) 932-5117,805 Footpath Ter,Nashville,Tennessee,TN,37221-3540
Locksmiths,"Nashville, TN",https://411.info/business/A-to-Z-24-Hour-Locksmith-Nashville-TN-12212676,A to Z 24 Hour Locksmith,(615) 873-2970,2224 Cabin Hill Rd,Nashville,Tennessee,TN,37214-1410
Locksmiths,"Nashville, TN",https://411.info/business/A1-24-Hours-Locksmith-Nashville-TN-19395957,A1 24 Hours Locksmith,(615) 925-3911,4649 Nolensville Pike,Nashville,Tennessee,TN,37211-5205
Locksmiths,"Nashville, TN",https://411.info/business/1-Hour-All-Day-A-Locksmith-Nashville-TN-3878036,1 Hour All Day A Locksmith,(615) 932-2118,925 Chancery Ln,Nashville,Tennessee,TN,37205-4546
Locksmiths,"Nashville, TN",https://411.info/business/1st-Choice-Locksmith-Nashville-TN-18025537,1st Choice Locksmith,(615) 883-2345,2210 Pennington Bend Rd,Nashville,Tennessee,TN,37214-1016
Locksmiths,"Nashville, TN",https://411.info/business/2-Locksmiths-And-A-Truck-Nashville-TN-18025645,2 Locksmiths And A Truck,(615) 932-6965,400 Blue Hills Dr,Nashville,Tennessee,TN,37214-3029
Locksmiths,"Nashville, TN",https://411.info/business/Aarant-Emergency-Locksmith-Nashville-TN-6853044,Aarant Emergency Locksmith,(615) 932-2464,2200 Sandra Dr,Nashville,Tennessee,TN,37210-5032
Locksmiths,"Nashville, TN",https://411.info/business/Alviar-Key-Locksmith-Nashville-TN-26391346,Alviar Key Locksmith,(615) 258-5269,2204 Elliston Pl,Nashville,Tennessee,TN,37203-5215
Locksmiths,"Nashville, TN",https://411.info/business/Emergency-1-Locksmith-Nashville-TN-26415110,Emergency 1 Locksmith,(615) 724-3988,3538 W Hamilton Ave,Nashville,Tennessee,TN,37218-2205
Locksmiths,"Nashville, TN",https://411.info/business/Emergency-1-Locksmith-Nashville-TN-26417008,Emergency 1 Locksmith,(615) 724-6794,221 S 11th St,Nashville,Tennessee,TN,37206-2938
Locksmiths,"Nashville, TN",https://411.info/business/Efficient-Locksmith-Nashville-TN-26492904,Efficient Locksmith,(615) 928-4801,1015 Kellow St,Nashville,Tennessee,TN,37208-1142
Locksmiths,"Nashville, TN",https://411.info/business/Emergency-A1-Locksmith-Nashville-TN-26839536,Emergency A1 Locksmith,(615) 988-9016,,Nashville,Tennessee,TN,37201
Locksmiths,"Nashville, TN",https://411.info/business/Nashville-Locksmith-Nashville-TN-26926078,Nashville Locksmith,(615) 236-8492,2302 Lebanon Pike,Nashville,Tennessee,TN,37214-2411
Locksmiths,"Nashville, TN",https://411.info/business/Amorosa-Locksmith-Nashville-TN-27392096,Amorosa Locksmith,(615) 981-8839,426 21st Ave S,Nashville,Tennessee,TN,37203-2424
Locksmiths,"Nashville, TN",https://411.info/business/24-Hr-Affordable-Locksmith-Alexander-Nashville-TN-23676388,24 Hr Affordable Locksmith Alexander,(501) 794-1414,2964 Sidco Dr,Nashville,Tennessee,TN,37204-3720
Locksmiths,"Nashville, TN",https://411.info/business/1-Locksmith-Nashville-TN-23679736,#1 Locksmith,(615) 724-6776,207 Woodland St,Nashville,Tennessee,TN,37213-1216
Locksmiths,"Nashville, TN",https://411.info/business/Andy-The-Rescue-Locksmith-Nashville-TN-30473454,Andy The Rescue Locksmith,(615) 412-9806,,Nashville,Tennessee,TN,37201
Locksmiths,"Nashville, TN",https://411.info/business/Century-Locksmith-Ltd-Nashville-TN-25433630,Century Locksmith Ltd,(615) 258-5194,1015 W Kirkland Ave,Nashville,Tennessee,TN,37216-3004
Locksmiths,"Nashville, TN",https://411.info/business/Carter-Local-Locksmith-Nashville-TN-25605152,Carter Local Locksmith,(615) 258-5951,1869 Elm Tree Dr,Nashville,Tennessee,TN,37210-3715
Locksmiths,"Nashville, TN",https://411.info/business/Lone-Star-Locksmith-Nashville-TN-27456998,Lone Star Locksmith,(615) 981-8196,111 N 1st St,Nashville,Tennessee,TN,37213-1101
Locksmiths,"Nashville, TN",https://411.info/business/Liberty-Locksmith-Llc-Nashville-TN-20422971,Liberty Locksmith Llc,(615) 360-1155,,Nashville,Tennessee,TN,37217
Locksmiths,"Nashville, TN",https://411.info/business/A-Always-Available-Locksmith-Nashville-TN-20423311,A Always Available Locksmith,(615) 925-3330,741 Work Dr,Nashville,Tennessee,TN,37207-3608
Locksmiths,"Nashville, TN",https://411.info/business/Jakes-Locksmith-Services-Nashville-TN-25528328,Jakes Locksmith Services,(615) 679-3898,927 8th Ave S,Nashville,Tennessee,TN,37203-4719
Locksmiths,"Nashville, TN",https://411.info/business/Page-Local-Locksmith-Nashville-TN-25533492,Page Local Locksmith,(615) 679-3941,1600 Buchanan St,Nashville,Tennessee,TN,37208-1408
Locksmiths,"Nashville, TN",https://411.info/business/Campbell-Locksmith-Services-Nashville-TN-25552682,Campbell Locksmith Services,(615) 679-3861,320 Broadway,Nashville,Tennessee,TN,37201-2008
Locksmiths,"Nashville, TN",https://411.info/business/Riverside-Locksmith-Nashville-TN-27428928,Riverside Locksmith,(615) 981-8893,1200 16th Ave S,Nashville,Tennessee,TN,37212-2902
Locksmiths,"Nashville, TN",https://411.info/business/1-Al-L-O-C-K-Smith-Locksmith-Nashville-TN-21832070,1 Al L O C K Smith Locksmith,(615) 970-3139,4831 Nolensville Pike,Nashville,Tennessee,TN,37211-5409
Locksmiths,"Nashville, TN",https://411.info/business/Original-Locksmith-Nashville-TN-27480276,Original Locksmith,(615) 981-8875,800 Monroe St,Nashville,Tennessee,TN,37208-2540
Locksmiths,"Nashville, TN",https://411.info/business/Coral-Locksmith-Nashville-TN-27480548,Coral Locksmith,(615) 981-8886,830 Fesslers Pkwy,Nashville,Tennessee,TN,37210-2908
Locksmiths,"Nashville, TN",https://411.info/business/Lee-Automotive-Locksmith-Nashville-TN-27497834,Lee Automotive Locksmith,(615) 340-6955,1509 Dr Db Todd Jr Blvd,Nashville,Tennessee,TN,37208-2426
Locksmiths,"Nashville, TN",https://411.info/business/A-Emergency-Locksmith-Nashville-TN-25781022,A Emergency Locksmith,(615) 724-6755,184 2nd Ave N,Nashville,Tennessee,TN,37201-1902
Locksmiths,"Nashville, TN",https://411.info/business/Anytime-Anywhere-Locksmith-Nashville-TN-25788198,Anytime Anywhere Locksmith,(615) 724-6930,120 2nd Ave N,Nashville,Tennessee,TN,37201-1902
Locksmiths,"Nashville, TN",https://411.info/business/1-24-7-A-Locks-Service-Nashville-TN-6258313,1 24 7 A Locks Service,(615) 932-2192,300 Jefferson St,Nashville,Tennessee,TN,37208-2744
Locksmiths,"Nashville, TN",https://411.info/business/Acme-Lock-Company-Nashville-TN-15601540,Acme Lock Company,(615) 932-6797,4107 Hillsboro Cir,Nashville,Tennessee,TN,37215-2710
Locksmiths,"Nashville, TN",https://411.info/business/Affordable-Lock-Key-Nashville-TN-11615408,Affordable Lock & Key,(615) 327-0013,,Nashville,Tennessee,TN,37201
Locksmiths,"Nashville, TN",https://411.info/business/Got-To-Lock-Nashville-TN-14994988,Got To Lock,(615) 932-6852,1102 Charlotte Ave,Nashville,Tennessee,TN,37203-3408
Locksmiths,"Nashville, TN",https://411.info/business/1-24-7-Lock-and-Key-Nashville-TN-15198016,1 24 7 Lock and Key,(615) 932-6967,5837 Charlotte Pike,Nashville,Tennessee,TN,37209-3101
Locksmiths,"Nashville, TN",https://411.info/business/Sumner-Lock-And-Key-Inc-Nashville-TN-16409248,Sumner Lock And Key Inc.,(615) 405-2316,,Nashville,Tennessee,TN,37201
Locksmiths,"Nashville, TN",https://411.info/business/Abc-Lock-Key-Inc-Nashville-TN-19038820,Abc Lock & Key Inc,(615) 456-5625,,Nashville,Tennessee,TN,37201
Locksmiths,"Nashville, TN",https://411.info/business/Tn-Lock-Key-Services-Inc-Nashville-TN-21455838,Tn Lock & Key Services Inc,(615) 568-6269,,Nashville,Tennessee,TN,37201
Locksmiths,"Nashville, TN",https://411.info/business/Reddylock-Safe-Nashville-TN-16207318,Reddylock & Safe,(615) 429-5319,,Nashville,Tennessee,TN,37201
Locksmiths,"Nashville, TN",https://411.info/business/007-Lock-and-Key-Nashville-TN-18228622,007 Lock and Key,(615) 932-6953,3053 Brick Church Pike,Nashville,Tennessee,TN,37207-3214
Locksmiths,"Nashville, TN",https://411.info/business/Glovers-Lock-Service-Nashville-TN-18635466,Glovers Lock Service,(615) 414-6800,,Nashville,Tennessee,TN,37201
Locksmiths,"Nashville, TN",https://411.info/business/0007-Lock1-Service-Nashville-TN-20320782,0007 Lock1 Service,(615) 932-6755,2700 Gallatin Pike,Nashville,Tennessee,TN,37216-3702
Locksmiths,"Nashville, TN",https://411.info/business/Nashville-Door-Closer-Nashville-TN-20217922,Nashville Door Closer,(615) 297-3749,1827B 12th Ave,Nashville,Tennessee,TN,37203-5405
Locksmiths,"Nashville, TN",https://411.info/business/Ace-s-Towing-Nashville-TN-21559414,Ace's Towing,(615) 791-0213,"431 E Thompson Ln, Ste E",Nashville,Tennessee,TN,37211-2621
Locksmiths,"Nashville, TN",https://411.info/business/0007-Lock1-Service-Nashville-TN-21144203,0007 Lock1 Service,(615) 932-6760,3956 Clarksville Pike,Nashville,Tennessee,TN,37218-1910
Locksmiths,"Nashville, TN",https://411.info/business/Aguiniga-Cerrajero-Comercial-Nashville-TN-26348982,Aguiniga Cerrajero Comercial,(615) 679-3877,102 Bomar Blvd,Nashville,Tennessee,TN,37209-1100
Locksmiths,"Nashville, TN",https://411.info/business/Alejandro-Locks-And-Keys-Nashville-TN-26349170,Alejandro Locks And Keys,(615) 258-5080,1522 Demonbreun St,Nashville,Tennessee,TN,37203-3112
Locksmiths,"Nashville, TN",https://411.info/business/Arreguin-Abrir-Cerraduras-Nashville-TN-26357236,Arreguin Abrir Cerraduras,(615) 258-5849,531 Lafayette St,Nashville,Tennessee,TN,37203-4224
Locksmiths,"Nashville, TN",https://411.info/business/Ballesteros-Cerrajero-Nashville-TN-26364628,Ballesteros Cerrajero,(615) 258-5863,800 6th Ave S,Nashville,Tennessee,TN,37203-4641
Locksmiths,"Nashville, TN",https://411.info/business/Aguayo-Lockplus-Nashville-TN-26368500,Aguayo Lockplus,(615) 647-3574,1015 Jefferson St,Nashville,Tennessee,TN,37208-2531
Locksmiths,"Nashville, TN",https://411.info/business/Armenteros-Locksnkeys-Nashville-TN-26388370,Armenteros Locksnkeys,(615) 258-5915,500 Cowan St,Nashville,Tennessee,TN,37207-5618
Locksmiths,"Nashville, TN",https://411.info/business/A-Lock-Key-Nashville-TN-23679612,A Lock & Key,(615) 724-3988,3538 W Hamilton Ave,Nashville,Tennessee,TN,37218-2205
Locksmiths,"Nashville, TN",https://411.info/business/Commercial-Lock-And-Door-Service-We-Don-t-Make-Car-Keys-Nashville-TN-29909790,Commercial Lock And Door Service We Don't Make Car Keys,(615) 241-0503,Po Box 291691,Nashville,Tennessee,TN,37229-1691
Locksmiths,"Nashville, TN",https://411.info/business/Locks-And-Stops-Nashville-TN-29627758,Locks And Stops,(615) 499-4427,1413 Jefferson St,Nashville,Tennessee,TN,37208-3069
Locksmiths,"Nashville, TN",https://411.info/business/Johnson-Lock-Key-Nashville-TN-27960828,Johnson Lock & Key,(615) 669-7865,,Nashville,Tennessee,TN,37201
Locksmiths,"Nashville, TN",https://411.info/business/Keys-Plus-Nashville-TN-26866352,Keys Plus,(615) 238-6690,629 Old Hickory Blvd,Nashville,Tennessee,TN,37209-5185
Locksmiths,"Nashville, TN",https://411.info/business/Bell-Locks-Repair-Nashville-TN-25526020,Bell Locks Repair,(615) 679-3995,2720 Eugenia Ave,Nashville,Tennessee,TN,37211-2120
Locksmiths,"Nashville, TN",https://411.info/business/Fursman-Open-Doors-Nashville-TN-25526866,Fursman Open Doors,(615) 679-3880,701 Ewing Ave,Nashville,Tennessee,TN,37203-4629
Locksmiths,"Nashville, TN",https://411.info/business/Simson-Open-Doors-Nashville-TN-25528160,Simson Open Doors,(615) 679-3923,2801 West End Ave,Nashville,Tennessee,TN,37203-1614
Locksmiths,"Nashville, TN",https://411.info/business/Rekey-Lock-Nashville-TN-25547874,Rekey Lock,(615) 679-3920,3404 West End Ave,Nashville,Tennessee,TN,37203-1029
Locksmiths,"Nashville, TN",https://411.info/business/Donaldson-Change-Locks-Nashville-TN-25609092,Donaldson Change Locks,(615) 258-5939,123 Ewing Dr,Nashville,Tennessee,TN,37207-2960
Locksmiths,"Nashville, TN",https://411.info/business/Door-Unlock-Nashville-TN-25610568,Door Unlock,(615) 258-5954,1740 River Hills Dr,Nashville,Tennessee,TN,37210-2313
Locksmiths,"Nashville, TN",https://411.info/business/Pop-A-Lock-Nashville-TN-16813503,Pop-A-Lock,(615) 331-1872,,Nashville,Tennessee,TN,37201
Locksmiths,"Nashville, TN",https://411.info/business/24-Hr-Nashville-Lock-And-Key-Service-Nashville-TN-13998407,24 Hr Nashville Lock And Key Service,(615) 340-6321,4011 Hillsboro Pike,Nashville,Tennessee,TN,37215-2718
Locksmiths,"Nashville, TN",https://411.info/business/Acme-Lock-Company-Nashville-TN-14793834,Acme Lock Company,(615) 932-6950,974 Murfreesboro Pike,Nashville,Tennessee,TN,37217-1594
Locksmiths,"Nashville, TN",https://411.info/business/Pop-A-Lock-Nashville-TN-21144017,Pop-A-Lock,(615) 731-8735,1308 Martin St,Nashville,Tennessee,TN,37203-4817
Locksmiths,"Nashville, TN",https://411.info/business/Commercial-Lock-And-Door-Service-Nashville-TN-20422936,Commercial Lock And Door Service,(615) 329-4901,,Nashville,Tennessee,TN,37201
Locksmiths,"Nashville, TN",https://411.info/business/0007-Lock1-Service-Nashville-TN-20526238,0007 Lock1 Service,(615) 873-2344,2113 Murfreesboro Pike,Nashville,Tennessee,TN,37217-3310
Locksmiths,"Nashville, TN",https://411.info/business/Harding-Mall-Lock-Key-Shop-Nashville-TN-20835494,Harding Mall Lock & Key Shop,(615) 834-0703,417 Harding Pl,Nashville,Tennessee,TN,37211-4579
Locksmiths,"Nashville, TN",https://411.info/business/Brooks-Lock-Key-Nashville-TN-898880,Brooks Lock & Key,(615) 228-5262,1213 McChesney Ave,Nashville,Tennessee,TN,37216-2728
Locksmiths,"Nashville, TN",https://411.info/business/Metro-Lock-Key-Inc-Nashville-TN-6255344,Metro Lock & Key Inc,(615) 227-9573,,Nashville,Tennessee,TN,37201
Locksmiths,"Nashville, TN",https://411.info/business/Mike-s-Lock-Key-Nashville-TN-15198017,Mike's Lock & Key,(615) 932-6973,6304 Charlotte Pike,Nashville,Tennessee,TN,37209-2927
Locksmiths,"Nashville, TN",https://411.info/business/Lock-Around-The-Clock-Nashville-TN-17218449,Lock Around The Clock,(615) 932-6940,2615 Franklin Pike,Nashville,Tennessee,TN,37204-3007
Locksmiths,"Nashville, TN",https://411.info/business/Lock-Around-The-Clock-Nashville-TN-15803712,Lock Around The Clock,(615) 932-6788,1807 21st Ave,Nashville,Tennessee,TN,37212-3705
Locksmiths,"Nashville, TN",https://411.info/business/Anselmo-Cerraduras-Y-Llaves-Nashville-TN-26343750,Anselmo Cerraduras Y Llaves,(615) 258-5838,2817 West End Ave,Nashville,Tennessee,TN,37203-1453
Locksmiths,"Nashville, TN",https://411.info/business/Arocha-Cerrajero-Magico-Nashville-TN-26353526,Arocha Cerrajero Magico,(615) 679-3906,5109 Georgia Ave,Nashville,Tennessee,TN,37209-2139
Locksmiths,"Nashville, TN",https://411.info/business/Amparo-Cerrajero-De-Casas-Nashville-TN-26355678,Amparo Cerrajero De Casas,(615) 928-3005,2616 Gallatin Pike,Nashville,Tennessee,TN,37216-3740
Locksmiths,"Nashville, TN",https://411.info/business/Antunez-Cerraduras-Automotrices-Nashville-TN-26356760,Antunez Cerraduras Automotrices,(615) 258-5842,2926 West End Ave,Nashville,Tennessee,TN,37203-1316
Locksmiths,"Nashville, TN",https://411.info/business/Alanis-Open-Locks-Nashville-TN-26361606,Alanis Open Locks,(615) 928-3004,1048 E Trinity Ln,Nashville,Tennessee,TN,37216-3030
Locksmiths,"Nashville, TN",https://411.info/business/Arce-Cerrajero-De-Nashville-TN-26365076,Arce Cerrajero De,(615) 258-5906,3354 Ambrose Ave,Nashville,Tennessee,TN,37207-4716
Locksmiths,"Nashville, TN",https://411.info/business/Arenas-Apertura-De-Nashville-TN-26365906,Arenas Apertura De,(615) 258-5909,3837 Dickerson Pike,Nashville,Tennessee,TN,37207-1317
Locksmiths,"Nashville, TN",https://411.info/business/Baile-Automotive-Locks-Nashville-TN-26366884,Baile Automotive Locks,(615) 679-3948,7054 Charlotte Pike,Nashville,Tennessee,TN,37209-4210
Locksmiths,"Nashville, TN",https://411.info/business/Locks-R-Us-Nashville-TN-26647664,Locks R Us,(615) 238-3619,7101 Cockrill Bend Blvd,Nashville,Tennessee,TN,37209-1005
Locksmiths,"Nashville, TN",https://411.info/business/Ellwood-Automotive-Locks-Nashville-TN-25529986,Ellwood Automotive Locks,(615) 679-3937,1015 Jefferson St,Nashville,Tennessee,TN,37208-2531
Locksmiths,"Nashville, TN",https://411.info/business/Key-Making-Nashville-TN-25533730,Key Making,(615) 679-3968,844 Hillwood Blvd,Nashville,Tennessee,TN,37209-4232
Locksmiths,"Nashville, TN",https://411.info/business/Blomfield-Change-Locks-Nashville-TN-25535914,Blomfield Change Locks,(615) 679-3859,304 Broadway,Nashville,Tennessee,TN,37201-2006
Locksmiths,"Nashville, TN",https://411.info/business/Dyball-Mobile-Locksihith-Nashville-TN-25610420,Dyball Mobile Locksihith,(615) 258-5956,1830 Air Lane Dr,Nashville,Tennessee,TN,37210-3817
Locksmiths,"Nashville, TN",https://411.info/business/Tn-Lock-And-Key-Service-Inc-Nashville-TN-29762062,Tn Lock And Key Service Inc,(615) 832-8128,5122 Nolensville Pike,Nashville,Tennessee,TN,37211-6548
Locksmiths,"Nashville, TN",https://411.info/business/Keys-Plus-Nashville-TN-26867820,Keys Plus,(615) 238-6650,5137 Harding Pike,Nashville,Tennessee,TN,37205-2802
Locksmiths,"Nashville, TN",https://411.info/business/Keys-Plus-Nashville-TN-26875614,Keys Plus,(615) 238-0359,2801 John A Merritt Blvd,Nashville,Tennessee,TN,37209-1506
Locksmiths,"Nashville, TN",https://411.info/business/Abc-Lock-And-Key-Inc-Nashville-TN-23471406,Abc Lock And Key Inc,(615) 818-0148,2424 Nolensville Pike,Nashville,Tennessee,TN,37211-2138
Locksmiths,"Nashville, TN",https://411.info/business/0007-Lock1-Service-Nashville-TN-19807119,0007 Lock1 Service,(615) 873-2337,3803 Gallatin Pike,Nashville,Tennessee,TN,37216-2609
Locksmiths,"Nashville, TN",https://411.info/business/1-24-7-A-Locks-Service-Nashville-TN-12212958,1 24 7 A Locks Service,(615) 932-2123,4220 Harding Pike,Nashville,Tennessee,TN,37205-2005
Locksmiths,"Nashville, TN",https://411.info/business/Cooper-Electric-Co-Nashville-TN-16611112,Cooper Electric Co,(615) 662-2340,,Nashville,Tennessee,TN,37201
Locksmiths,"Nashville, TN",https://411.info/business/Eastway-Lock-Key-Nashville-TN-17218448,Eastway Lock & Key,(615) 932-6936,1001 Riverside Dr,Nashville,Tennessee,TN,37206-1429
Locksmiths,"Nashville, TN",https://411.info/business/1-24-7-A-Locks-Service-Nashville-TN-6853046,1 24 7 A Locks Service,(615) 932-2480,1331 Antioch Pike,Nashville,Tennessee,TN,37211-4142
Locksmiths,"Nashville, TN",https://411.info/business/Pop-A-Lock-Nashville-TN-15803441,Pop-A-Lock,(615) 771-7862,Cools Spgs,Nashville,Tennessee,TN,37211
Locksmiths,"Nashville, TN",https://411.info/business/0-Alocksmith-Service-Nashville-TN-23679614,0 Alocksmith Service,(615) 724-6850,9 Hermitage Ave,Nashville,Tennessee,TN,37210-2109
Locksmiths,"Nashville, TN",https://411.info/business/Murfreesboro-Key-Service-Nashville-TN-25242116,Murfreesboro Key Service,(615) 361-7015,,Nashville,Tennessee,TN,37201
Locksmiths,"Nashville, TN",https://411.info/business/Ayon-Llaves-En-El-Coche-Nashville-TN-26352120,Ayon Llaves En El Coche,(615) 679-3935,6808 Charlotte Pike,Nashville,Tennessee,TN,37209-4206
Locksmiths,"Nashville, TN",https://411.info/business/Alderete-Cerrajero-Plus-Nashville-TN-26365856,Alderete Cerrajero Plus,(615) 679-3853,1325 6th Ave N,Nashville,Tennessee,TN,37208-2603
Locksmiths,"Nashville, TN",https://411.info/business/Banuelos-Key-Making-Nashville-TN-26370564,Banuelos Key Making,(615) 258-5919,901 N Hill Dr,Nashville,Tennessee,TN,37207-4721
Locksmiths,"Nashville, TN",https://411.info/business/Keys-Plus-Nashville-TN-26871492,Keys Plus,(615) 238-6644,3767 Nolensville Pike,Nashville,Tennessee,TN,37211-3324
Locksmiths,"Nashville, TN",https://411.info/business/Angulo-Locksnkeys-Nashville-TN-26401220,Angulo Locksnkeys,(615) 679-3985,2814 Blair Blvd,Nashville,Tennessee,TN,37212-4702
Locksmiths,"Nashville, TN",https://411.info/business/George-Change-Locks-Nashville-TN-25456046,George Change Locks,(615) 340-6993,7044 Charlotte Pike,Nashville,Tennessee,TN,37209-4210
Locksmiths,"Nashville, TN",https://411.info/business/Gale-Locks-And-Keys-Nashville-TN-25523042,Gale Locks And Keys,(615) 679-3881,718 6th Ave S,Nashville,Tennessee,TN,37203-4616
Locksmiths,"Nashville, TN",https://411.info/business/Pop-Lock-Nashville-TN-25523698,Pop Lock,(615) 679-3984,731 Croley Dr,Nashville,Tennessee,TN,37209-1266
Locksmiths,"Nashville, TN",https://411.info/business/Transponder-Keys-Nashville-TN-25524348,Transponder Keys,(615) 679-3987,4511 Charlotte Ave,Nashville,Tennessee,TN,37209-3609
Locksmiths,"Nashville, TN",https://411.info/business/Schlee-Change-Locks-Nashville-TN-25531064,Schlee Change Locks,(615) 679-3943,2719 Jefferson St,Nashville,Tennessee,TN,37208-2824
Locksmiths,"Nashville, TN",https://411.info/business/Fisher-Locks-And-Keys-Nashville-TN-25553570,Fisher Locks And Keys,(615) 679-3938,50 Van Buren St,Nashville,Tennessee,TN,37208-1718
Locksmiths,"Nashville, TN",https://411.info/business/Springfield-Key-Service-Nashville-TN-28239570,Springfield Key Service,(615) 361-7015,718 Thompson Ln,Nashville,Tennessee,TN,37204-3600
Locksmiths,"Nashville, TN",https://411.info/business/Pop-A-Lock-Nashville-TN-21352131,Pop-A-Lock,(615) 255-6736,533 Church St,Nashville,Tennessee,TN,37219-2312
Locksmiths,"Nashville, TN",https://411.info/business/Eastway-Lock-Key-Nashville-TN-18228619,Eastway Lock & Key,(615) 932-6784,217 5th Ave,Nashville,Tennessee,TN,37219-1901
Locksmiths,"Nashville, TN",https://411.info/business/Lock-And-Key-Service-Nashville-TN-899525,Lock And Key Service,(615) 340-6009,4405 Harding Pike,Nashville,Tennessee,TN,37205-2203
Locksmiths,"Nashville, TN",https://411.info/business/Got-To-Lock-Nashville-TN-18837364,Got To Lock,(615) 932-6969,4560 Harding Pike,Nashville,Tennessee,TN,37205-6101
Locksmiths,"Nashville, TN",https://411.info/business/Tn-Lock-Key-Services-Inc-Nashville-TN-19498410,Tn Lock & Key Services Inc,(615) 596-2664,,Nashville,Tennessee,TN,37201
Locksmiths,"Nashville, TN",https://411.info/business/Mike-s-Lock-Key-Nashville-TN-19039334,Mike's Lock & Key,(615) 932-6856,1700 5th Ave,Nashville,Tennessee,TN,37208-2245
Locksmiths,"Nashville, TN",https://411.info/business/A-1-Safe-Lock-Service-Nashville-TN-20115449,A-1 Safe & Lock Service,(615) 367-0135,,Nashville,Tennessee,TN,37201
Locksmiths,"Nashville, TN",https://411.info/business/Green-Hills-Lock-Key-Nashville-TN-18024806,Green Hills Lock & Key,(615) 269-3616,PO Box 159303,Nashville,Tennessee,TN,37215-9303
Locksmiths,"Nashville, TN",https://411.info/business/Mike-s-Lock-Key-Nashville-TN-17218446,Mike's Lock & Key,(615) 932-6682,2102 Belcourt Ave,Nashville,Tennessee,TN,37212-3504
Locksmiths,"Nashville, TN",https://411.info/business/Lankford-Hardware-Supply-Co-Inc-Nashville-TN-13402998,Lankford Hardware & Supply Co Inc,(615) 244-3750,800 6th Ave,Nashville,Tennessee,TN,37203-4618
Locksmiths,"Nashville, TN",https://411.info/business/A-A-A-Nashville-Lock-Key-Nashville-TN-9825883,A A A Nashville Lock & Key,(615) 352-0035,,Nashville,Tennessee,TN,37201
Locksmiths,"Nashville, TN",https://411.info/business/Affordable-Lock-Key-Nashville-TN-2684622,Affordable Lock & Key,(615) 226-0999,,Nashville,Tennessee,TN,37201
Locksmiths,"Nashville, TN",https://411.info/business/Hosse-Hosse-Lock-Safe-Co-Nashville-TN-9825112,Hosse & Hosse Lock & Safe Co,(615) 226-2420,918 Woodland St,Nashville,Tennessee,TN,37206-3722
Locksmiths,"Nashville, TN",https://411.info/business/Affordable-Lock-Key-Nashville-TN-7447516,Affordable Lock & Key,(615) 883-0556,,Nashville,Tennessee,TN,37201
Locksmiths,"Nashville, TN",https://411.info/business/Andujar-Llaves-Del-Coche-Perdidas-Nashville-TN-26344624,Andujar Llaves Del Coche Perdidas,(615) 258-5836,2805 West End Ave,Nashville,Tennessee,TN,37203-1427
Locksmiths,"Nashville, TN",https://411.info/business/Aleman-Cerrajero-De-Casas-Nashville-TN-26368768,Aleman Cerrajero De Casas,(615) 258-5082,1621 Church St,Nashville,Tennessee,TN,37203-2919
Locksmiths,"Nashville, TN",https://411.info/business/Angeles-Commercial-Nashville-TN-26371088,Angeles Commercial,(615) 928-3006,2807 Gallatin Pike,Nashville,Tennessee,TN,37216-3712
Locksmiths,"Nashville, TN",https://411.info/business/Alamillo-Automotive-Locks-Nashville-TN-26371610,Alamillo Automotive Locks,(615) 679-3828,1037 9th Ave N,Nashville,Tennessee,TN,37208-3136
Locksmiths,"Nashville, TN",https://411.info/business/Armendarez-Llaves-Del-Coche-Perdidas-Nashville-TN-26389752,Armendarez Llaves Del Coche Perdidas,(615) 258-5913,4736 Indian Summer Dr,Nashville,Tennessee,TN,37207-1007
Locksmiths,"Nashville, TN",https://411.info/business/Barahona-Cerrajero-Plus-Nashville-TN-26392940,Barahona Cerrajero Plus,(615) 258-5896,920 Main St,Nashville,Tennessee,TN,37206-3614
Locksmiths,"Nashville, TN",https://411.info/business/Nashville-Key-Service-Nashville-TN-28542452,Nashville Key Service,(615) 208-3958,,Nashville,Tennessee,TN,37201
Locksmiths,"Nashville, TN",https://411.info/business/Charlton-Change-Locks-Nashville-TN-25452394,Charlton Change Locks,(615) 340-6589,900 Rosa L Parks Blvd,Nashville,Tennessee,TN,37208-2600
Locksmiths,"Nashville, TN",https://411.info/business/Hardware-Plus-Nashville-TN-23588444,Hardware Plus,(615) 238-0410,2312 Brick Church Pike,Nashville,Tennessee,TN,37207-4402
Locksmiths,"Nashville, TN",https://411.info/business/Fabian-Automotive-Locks-Nashville-TN-25519548,Fabian Automotive Locks,(615) 679-3874,700 Drexel St,Nashville,Tennessee,TN,37203-4172
Locksmiths,"Nashville, TN",https://411.info/business/Car-Locks-Repair-Nashville-TN-25536030,Car Locks Repair,(615) 679-3929,2492 25th Ave N,Nashville,Tennessee,TN,37208-1018
Locksmiths,"Nashville, TN",https://411.info/business/Car-Key-More-Nashville-TN-24466760,Car Key & More,(615) 238-0354,712 Main St,Nashville,Tennessee,TN,37206-3606
Locksmiths,"Nashville, TN",https://411.info/business/Amescua-Apertura-De-Puertas-Nashville-TN-26352514,Amescua Apertura De Puertas,(615) 679-3866,2492 25th Ave N,Nashville,Tennessee,TN,37208-1018
Locksmiths,"Nashville, TN",https://411.info/business/Nashville-Key-Service-Nashville-TN-28234530,Nashville Key Service,(615) 361-7015,718 Thompson Ln,Nashville,Tennessee,TN,37204-3600
Locksmiths,"Nashville, TN",https://411.info/business/Asher-Lock-N-Loads-Nashville-TN-30472812,Asher Lock 'N' Loads,(615) 988-7937,,Nashville,Tennessee,TN,37201
Locksmiths,"Nashville, TN",https://411.info/business/Locksmith-Inc-Nashville-TN-20423312,Locksmith Inc,(615) 925-3367,426 21st Ave,Nashville,Tennessee,TN,37203-2424
Locksmiths,"Nashville, TN",https://411.info/business/Locksmith-Inc-Nashville-TN-19292188,Locksmith Inc,(615) 925-3355,209 10th Ave,Nashville,Tennessee,TN,37203-4144
Locksmiths,"Nashville, TN",https://411.info/business/24-Hour-Locksmith-Nashville-TN-21040732,24 Hour Locksmith,(615) 925-3332,73 White Bridge Rd,Nashville,Tennessee,TN,37205-1444
Locksmiths,"Nashville, TN",https://411.info/business/Locksmith-Inc-Nashville-TN-21144200,Locksmith Inc,(615) 925-3403,3048 Dickerson Pike,Nashville,Tennessee,TN,37207-2981
Locksmiths,"Nashville, TN",https://411.info/business/Emergency-24-Hour-A-Locksmith-Nashville-TN-20218148,Emergency 24 Hour A Locksmith,(615) 742-0003,3719 Clarksville Pike,Nashville,Tennessee,TN,37218-2201
Locksmiths,"Nashville, TN",https://411.info/business/Emergency-Locksmith-Nashville-TN-21559529,Emergency Locksmith,(615) 925-3891,5301 Harding Pike,Nashville,Tennessee,TN,37205-2805
Locksmiths,"Nashville, TN",https://411.info/business/1A1-Lock-and-Locksmith-24-Hours-Nashville-TN-21456073,1A1 Lock and Locksmith 24 Hours,(615) 925-3354,3212 West End Ave,Nashville,Tennessee,TN,37203-1333
Locksmiths,"Nashville, TN",https://411.info/business/24-Hour-Locksmith-Nashville-TN-20013113,24 Hour Locksmith,(615) 925-3890,395 Wallace Rd,Nashville,Tennessee,TN,37211-4881
Locksmiths,"Nashville, TN",https://411.info/business/A1-24-Hours-Locksmith-Nashville-TN-20115813,A1 24 Hours Locksmith,(615) 925-3368,3120 Harborwood Dr,Nashville,Tennessee,TN,37214-4362
Locksmiths,"Nashville, TN",https://411.info/business/Dawn-To-Dark-Locksmith-Service-Nashville-TN-19039333,Dawn To Dark Locksmith Service,(615) 932-6794,347 Opry Mills Dr,Nashville,Tennessee,TN,37214-2437
Locksmiths,"Nashville, TN",https://411.info/business/1A1-Lock-and-Locksmith-24-Hours-Nashville-TN-20526281,1A1 Lock and Locksmith 24 Hours,(615) 925-3401,2516 Gallatin Ave,Nashville,Tennessee,TN,37206-3216
Locksmiths,"Nashville, TN",https://411.info/business/1A1-Lock-and-Locksmith-24-Hours-Nashville-TN-21040737,1A1 Lock and Locksmith 24 Hours,(615) 925-3395,2608 Nolensville Pike,Nashville,Tennessee,TN,37211-2241
Locksmiths,"Nashville, TN",https://411.info/business/A-Always-Available-Locksmith-Nashville-TN-21352613,A Always Available Locksmith,(615) 925-3904,5035 Harding Pl,Nashville,Tennessee,TN,37211-4160
Locksmiths,"Nashville, TN",https://411.info/business/Emergency-Locksmith-Nashville-TN-20320777,Emergency Locksmith,(615) 925-3879,5429 Nolensville Pike,Nashville,Tennessee,TN,37211-6417
Locksmiths,"Nashville, TN",https://411.info/business/America-24-Hour-Locksmith-Nashville-TN-20938013,America 24 Hour Locksmith,(615) 340-6842,3221 Powell Ave,Nashville,Tennessee,TN,37203
Locksmiths,"Nashville, TN",https://411.info/business/Locksmith-Inc-Nashville-TN-19703964,Locksmith Inc,(615) 925-3409,4683 Trousdale Dr,Nashville,Tennessee,TN,37204-4584
Locksmiths,"Nashville, TN",https://411.info/business/Locksmith-Inc-Nashville-TN-19807160,Locksmith Inc,(615) 925-3361,5704 Nolensville Pike,Nashville,Tennessee,TN,37211-6493
Locksmiths,"Nashville, TN",https://411.info/business/Emergency-Locksmith-Nashville-TN-19601416,Emergency Locksmith,(615) 925-3338,2126 Abbott Martin Rd,Nashville,Tennessee,TN,37215-2690
Locksmiths,"Nashville, TN",https://411.info/business/Locks-1-2-3-Locksmith-Nashville-TN-17823652,Locks 1 2 3 Locksmith,(615) 932-2212,2704 Clifton Ave,Nashville,Tennessee,TN,37209-4054
Locksmiths,"Nashville, TN",https://411.info/business/24-Hour-Locksmith-Nashville-TN-19395956,24 Hour Locksmith,(615) 925-3896,1092 Murfreesboro Pike,Nashville,Tennessee,TN,37217-1513
Locksmiths,"Nashville, TN",https://411.info/business/All-Lock-Service-Locksmith-Nashville-TN-18836632,All Lock Service Locksmith,(615) 340-6645,4108 Hillsboro Pike,Nashville,Tennessee,TN,37215-2701
Locksmiths,"Nashville, TN",https://411.info/business/Emerg-Locks-A-Locksmith-Nashville-TN-14793825,Emerg Locks A Locksmith,(615) 932-2217,3400 Indiana Ave,Nashville,Tennessee,TN,37209-3843
Locksmiths,"Nashville, TN",https://411.info/business/365-Locksmith-Nashville-TN-16611497,365 Locksmith,(615) 932-6846,18 Springhouse Ln,Nashville,Tennessee,TN,37214-1462
Locksmiths,"Nashville, TN",https://411.info/business/American-Locksmith-Nashville-TN-16814185,American Locksmith,(615) 932-6799,850 Hillwood Blvd,Nashville,Tennessee,TN,37209-4259
Locksmiths,"Nashville, TN",https://411.info/business/24-A-Always-Available-Locksmith-Nashville-TN-19498142,24 A Always Available Locksmith,(615) 255-1772,200 James Robertson Pkwy,Nashville,Tennessee,TN,37201-1202
Locksmiths,"Nashville, TN",https://411.info/business/1-24-7-Locksmith-Service-Nashville-TN-20629270,1 24-7 Locksmith Service,(615) 932-6975,2731 Lebanon Pike,Nashville,Tennessee,TN,37214-2503
Locksmiths,"Nashville, TN",https://411.info/business/24-Anywhere-Locksmith-Nashville-TN-18025634,24 Anywhere Locksmith,(615) 932-2129,406 N 17th St,Nashville,Tennessee,TN,37206-1913
Locksmiths,"Nashville, TN",https://411.info/business/1-800-Locksmith-Nashville-TN-18025646,1 800 Locksmith,(615) 932-6971,6202 Charlotte Pike,Nashville,Tennessee,TN,37209-3036
Locksmiths,"Nashville, TN",https://411.info/business/123-Locksmith-Service-Nashville-TN-15803714,123 Locksmith Service,(615) 932-6929,600 Benton Ave,Nashville,Tennessee,TN,37204-2304
Locksmiths,"Nashville, TN",https://411.info/business/A-Always-Available-Locksmith-Nashville-TN-19292190,A Always Available Locksmith,(615) 925-3398,217 W Maplewood Ln,Nashville,Tennessee,TN,37207-2973
Locksmiths,"Nashville, TN",https://411.info/business/365-Locksmith-Nashville-TN-17420150,365 Locksmith,(615) 932-6962,2131 Abbott Martin Rd,Nashville,Tennessee,TN,37215-2699
Locksmiths,"Nashville, TN",https://411.info/business/ASAP-24-Hour-Locksmith-Nashville-TN-14994978,ASAP 24 Hour Locksmith,(615) 932-2470,290 Bridgeway Cir,Nashville,Tennessee,TN,37211-3074
Locksmiths,"Nashville, TN",https://411.info/business/Aaronson-Local-Locksmith-Nashville-TN-12212670,Aaronson Local Locksmith,(615) 873-2170,317 18th Ave,Nashville,Tennessee,TN,37203-2108
Locksmiths,"Nashville, TN",https://411.info/business/Locksmith-Nashville-TN-7447779,Locksmith,(615) 932-5441,2421 Cabin Hill Rd,Nashville,Tennessee,TN,37214-1528
Locksmiths,"Nashville, TN",https://411.info/business/24-Hour-Locksmith-Nashville-TN-19189602,24 Hour Locksmith,(615) 925-3884,3051 Lebanon Pike,Nashville,Tennessee,TN,37214-2229
Locksmiths,"Nashville, TN",https://411.info/business/Green-Locksmith-Nashville-TN-17621703,Green Locksmith,(615) 932-6779,4705 Harding Pike,Nashville,Tennessee,TN,37205-2809
Locksmiths,"Nashville, TN",https://411.info/business/0-1-A-1-Locksmith-Nashville-TN-17218447,0 1 A 1 Locksmith,(615) 932-6752,3709 Clarksville Pike,Nashville,Tennessee,TN,37218-2201
Locksmiths,"Nashville, TN",https://411.info/business/A1-Locksmith-Service-Nashville-Nashville-TN-16005715,A1 Locksmith Service Nashville,(615) 932-6789,2813 West End Ave,Nashville,Tennessee,TN,37203-1427
Locksmiths,"Nashville, TN",https://411.info/business/Emergency-A-Always-Available-24-Hour-Locksmith-Nashville-TN-14389775,Emergency A Always Available 24 Hour Locksmith,(615) 331-7515,5880 Nolensville Pike,Nashville,Tennessee,TN,37211-6502
Locksmiths,"Nashville, TN",https://411.info/business/All-Cities-Locksmith-Nashville-Office-Nashville-TN-14591743,All Cities Locksmith Nashville Office,(615) 932-6782,2800 Opryland Dr,Nashville,Tennessee,TN,37214-1200
Locksmiths,"Nashville, TN",https://411.info/business/15-Min-24-7-Days-All-Lock-Service-Locksmith-Nashville-TN-899526,15 Min 24 7 Days All Lock Service Locksmith,(615) 340-6015,230 4th Ave,Nashville,Tennessee,TN,37219-2103
Locksmiths,"Nashville, TN",https://411.info/business/Aaland-24-Hour-Locksmith-Nashville-TN-4473270,Aaland 24 Hour Locksmith,(615) 932-2460,930 Lebanon Pike,Nashville,Tennessee,TN,37210-2912
Locksmiths,"Nashville, TN",https://411.info/business/Aaa-Music-City-Locksmith-Nashville-TN-20628859,Aaa Music City Locksmith,(615) 327-8006,PO Box 160120,Nashville,Tennessee,TN,37216-0120
Locksmiths,"Nashville, TN",https://411.info/business/1a1-Lock-Locksmith-24-Hours-Nashville-TN-20629263,1a1 Lock & Locksmith 24 Hours,(615) 925-3901,812 Briley Pkwy,Nashville,Tennessee,TN,37217
Locksmiths,"Nashville, TN",https://411.info/business/1A1-Lock-and-Locksmith-24-Hours-Nashville-TN-19498659,1A1 Lock and Locksmith 24 Hours,(615) 925-3372,3130 Clarksville Pike,Nashville,Tennessee,TN,37218-2810
Locksmiths,"Nashville, TN",https://411.info/business/24-Hours-7-Days-A-Week-Locksmith-Nashville-TN-18837363,24 Hours 7 Days A Week Locksmith,(615) 932-6961,4340 Harding Pike,Nashville,Tennessee,TN,37205
Locksmiths,"Nashville, TN",https://411.info/business/A1-24-Hours-Locksmith-Nashville-TN-19395951,A1 24 Hours Locksmith,(615) 925-3010,518 Donelson Pike,Nashville,Tennessee,TN,37214-3729
Locksmiths,"Nashville, TN",https://411.info/business/A1-24-Hours-Locksmith-Nashville-TN-20835579,A1 24 Hours Locksmith,(615) 925-3342,4013 Moss Rose Dr,Nashville,Tennessee,TN,37216-2927
Locksmiths,"Nashville, TN",https://411.info/business/Car-Locksmith-Of-Berry-Hill-Nashville-TN-18025639,Car Locksmith Of Berry Hill,(615) 932-6484,740 Thompson Ln,Nashville,Tennessee,TN,37204-3605
Locksmiths,"Nashville, TN",https://411.info/business/24-All-Day-Locksmith-Nashville-TN-18636063,24 All Day Locksmith,(615) 932-2418,2109 Martha Ave,Nashville,Tennessee,TN,37216-3924
Locksmiths,"Nashville, TN",https://411.info/business/Locksmith-All-Night-Nashville-TN-10424951,Locksmith All Night,(615) 932-6998,5249 Timber Gap Dr,Nashville,Tennessee,TN,37221-4067
Locksmiths,"Nashville, TN",https://411.info/business/1-Hour-All-Day-A-Locksmith-Nashville-TN-8638735,1 Hour All Day A Locksmith,(615) 932-5101,501 Dunailie Dr,Nashville,Tennessee,TN,37217-2427
Locksmiths,"Nashville, TN",https://411.info/business/All-Day-24-Hour-Locksmith-Nashville-TN-307447,All Day 24 Hour Locksmith,(615) 932-5445,3704 Woodmont Blvd,Nashville,Tennessee,TN,37215-1840
Locksmiths,"Nashville, TN",https://411.info/business/0-7-Days-Emergency-Locksmith-Nashville-TN-14793832,0 7 Days Emergency Locksmith,(615) 932-6859,1401 Woodland St,Nashville,Tennessee,TN,37206-2822
Locksmiths,"Nashville, TN",https://411.info/business/24-Emergency-Locksmith-Nashville-TN-15601536,24 Emergency Locksmith,(615) 932-2207,401 Annex Ave,Nashville,Tennessee,TN,37209-2718
Locksmiths,"Nashville, TN",https://411.info/business/ASAP-Locksmith-Nashville-TN-17621708,ASAP Locksmith,(615) 932-6963,5705 Charlotte Pike,Nashville,Tennessee,TN,37209-3214
Locksmiths,"Nashville, TN",https://411.info/business/General-Locksmith-Nashville-TN-17420148,General Locksmith,(615) 932-6778,4012 Hillsboro Pike,Nashville,Tennessee,TN,37215-2723
Locksmiths,"Nashville, TN",https://411.info/business/7-Days-Locksmith-Nashville-TN-18430181,7 Days Locksmith,(615) 932-6924,711 Gallatin Ave,Nashville,Tennessee,TN,37206-3249
Locksmiths,"Nashville, TN",https://411.info/business/Green-Locksmith-Nashville-TN-16409804,Green Locksmith,(615) 932-6981,3839 Dickerson Pike,Nashville,Tennessee,TN,37207-1317
Locksmiths,"Nashville, TN",https://411.info/business/All-Around-Locksmith-Service-Nashville-TN-14390501,All Around Locksmith Service,(615) 932-6977,360 Elysian Fields Ct,Nashville,Tennessee,TN,37211-3748
Locksmiths,"Nashville, TN",https://411.info/business/24-7-Available-A-Locksmith-Nashville-TN-12809821,24 7 Available A Locksmith,(615) 873-2967,805 Ember Lake Dr,Nashville,Tennessee,TN,37214-4005
Locksmiths,"Nashville, TN",https://411.info/business/Emergency-All-Day-Locksmith-Nashville-TN-19807165,Emergency All Day Locksmith,(615) 932-5977,116 E Fairview Dr,Nashville,Tennessee,TN,37218-1915
Locksmiths,"Nashville, TN",https://411.info/business/Locksmith-ASAP-Nashville-TN-11617761,Locksmith ASAP,(615) 932-2459,90 Scobey Dr,Nashville,Tennessee,TN,37210-4751
Locksmiths,"Nashville, TN",https://411.info/business/A1-24-Hours-Locksmith-Nashville-TN-19498661,A1 24 Hours Locksmith,(615) 925-3881,3500 Gallatin Pike,Nashville,Tennessee,TN,37216-2604
Locksmiths,"Nashville, TN",https://411.info/business/Aarant-Emergency-Locksmith-Nashville-TN-12212961,Aarant Emergency Locksmith,(615) 932-2174,3106 Richmond Hill Dr,Nashville,Tennessee,TN,37207-2856
Locksmiths,"Nashville, TN",https://411.info/business/24-Hour-Locksmith-Nashville-TN-20115818,24 Hour Locksmith,(615) 925-3908,1228 Ardee Ave,Nashville,Tennessee,TN,37216-2504
Locksmiths,"Nashville, TN",https://411.info/business/1A1-Lock-and-Locksmith-24-Hours-Nashville-TN-19807158,1A1 Lock and Locksmith 24 Hours,(615) 925-3340,154 Opry Mills Dr,Nashville,Tennessee,TN,37214-2432
Locksmiths,"Nashville, TN",https://411.info/business/AAA-Locksmith-Service-Nashville-TN-16409614,AAA Locksmith Service,(615) 833-6666,PO Box 160120,Nashville,Tennessee,TN,37216-0120
Locksmiths,"Nashville, TN",https://411.info/business/24-Anywhere-Locksmith-Nashville-TN-16814178,24 Anywhere Locksmith,(615) 932-5437,2401 Belmont Blvd,Nashville,Tennessee,TN,37212-5503
Locksmiths,"Nashville, TN",https://411.info/business/1-24-7-Locksmith-Service-Nashville-TN-18636070,1 24 7 Locksmith Service,(615) 932-6858,109 Lafayette St,Nashville,Tennessee,TN,37210-3432
Locksmiths,"Nashville, TN",https://411.info/business/Emergency-All-Day-Locksmith-Nashville-TN-8638730,Emergency All Day Locksmith,(615) 932-2131,901 Chicamauga Ave,Nashville,Tennessee,TN,37206-3525
Locksmiths,"Nashville, TN",https://411.info/business/Emergency-All-Day-Locksmith-Nashville-TN-4473268,Emergency All Day Locksmith,(615) 932-2416,1247 Riverwood Dr,Nashville,Tennessee,TN,37216-2229
Locksmiths,"Nashville, TN",https://411.info/business/24-7-Available-A-Locksmith-Nashville-TN-10424944,24 7 Available A Locksmith,(615) 932-2408,4727 Benton Smith Rd,Nashville,Tennessee,TN,37215-4303
Locksmiths,"Nashville, TN",https://411.info/business/A-Emergency-Locksmith-Services-Nashville-TN-23679386,A Emergency Locksmith Services,(615) 724-6737,614 Airpark Center Dr,Nashville,Tennessee,TN,37217-2923
Locksmiths,"Nashville, TN",https://411.info/business/Locksmith-Nashville-TN-23679432,Locksmith,(615) 724-6400,1305 Clinton St,Nashville,Tennessee,TN,37203-2829
Locksmiths,"Nashville, TN",https://411.info/business/Aa-Locksmith-Nashville-TN-23679780,Aa Locksmith,(615) 724-5998,2920 Sidco Dr,Nashville,Tennessee,TN,37204-3759
Locksmiths,"Nashville, TN",https://411.info/business/Anytime-Anywhere-Locksmith-Nashville-TN-25775586,Anytime Anywhere Locksmith,(615) 724-6835,327 Union St,Nashville,Tennessee,TN,37201-1415
Locksmiths,"Nashville, TN",https://411.info/business/Dynamic-Locksmith-Nashville-TN-26488712,Dynamic Locksmith,(615) 928-4834,708 Melpark Dr,Nashville,Tennessee,TN,37204-2216
Locksmiths,"Nashville, TN",https://411.info/business/Stonecreast-Locksmith-Nashville-TN-27391188,Stonecreast Locksmith,(615) 981-8832,305 Church St,Nashville,Tennessee,TN,37201-1706
Locksmiths,"Nashville, TN",https://411.info/business/Cowan-Locksmith-Nashville-TN-27434370,Cowan Locksmith,(615) 981-8874,1104 Rosa L Parks Blvd,Nashville,Tennessee,TN,37208-2520
Locksmiths,"Nashville, TN",https://411.info/business/Shalimar-Locksmith-Nashville-TN-27439250,Shalimar Locksmith,(615) 981-8197,2330 Jackson Downs Blvd,Nashville,Tennessee,TN,37214-2372
Locksmiths,"Nashville, TN",https://411.info/business/Forest-Locksmith-Nashville-TN-27426714,Forest Locksmith,(615) 981-8870,3010 Dickerson Pike,Nashville,Tennessee,TN,37207-2902
Locksmiths,"Nashville, TN",https://411.info/business/Arvit-Locksmith-Nashville-TN-27459652,Arvit Locksmith,(615) 981-8883,1650 Elm Hill Pike,Nashville,Tennessee,TN,37210-3626
Locksmiths,"Nashville, TN",https://411.info/business/Annex-Locksmith-Nashville-TN-27475730,Annex Locksmith,(615) 981-8950,3930 Clarksville Pike,Nashville,Tennessee,TN,37218-1910
Locksmiths,"Nashville, TN",https://411.info/business/Vera-Locksmith-Nashville-TN-27476454,Vera Locksmith,(615) 981-8946,847 Briley Pkwy,Nashville,Tennessee,TN,37217-1709
Locksmiths,"Nashville, TN",https://411.info/business/Hancock-Locksmith-Services-Nashville-TN-25525400,Hancock Locksmith Services,(615) 679-3892,1703 Church St,Nashville,Tennessee,TN,37203-2921
Locksmiths,"Nashville, TN",https://411.info/business/Farrington-Local-Locksmith-Nashville-TN-25530194,Farrington Local Locksmith,(615) 647-3576,2104 Crestmoor Rd,Nashville,Tennessee,TN,37215-2631
Locksmiths,"Nashville, TN",https://411.info/business/Fennell-Locksmith-Services-Nashville-TN-25530536,Fennell Locksmith Services,(615) 647-3577,2020 Glen Echo Rd,Nashville,Tennessee,TN,37215-2808
Locksmiths,"Nashville, TN",https://411.info/business/Black-Car-Key-Locksmith-Nashville-TN-25542846,Black Car Key Locksmith,(615) 679-3953,5109 Georgia Ave,Nashville,Tennessee,TN,37209-2139
Locksmiths,"Nashville, TN",https://411.info/business/Fitzgerald-Locksmith-Nashville-TN-27482158,Fitzgerald Locksmith,(615) 981-8942,2806 Smith Springs Rd,Nashville,Tennessee,TN,37217-4311
Locksmiths,"Nashville, TN",https://411.info/business/Avitia-House-Locksmith-Nashville-TN-26345506,Avitia House Locksmith,(615) 679-3931,6720 Charlotte Pike,Nashville,Tennessee,TN,37209-4268
Locksmiths,"Nashville, TN",https://411.info/business/Emergency-1-Locksmith-Nashville-TN-26412420,Emergency 1 Locksmith,(615) 724-6753,167 Rosa L Parks Blvd,Nashville,Tennessee,TN,37203-3731
Locksmiths,"Nashville, TN",https://411.info/business/Emergency-1-Locksmith-Nashville-TN-26419154,Emergency 1 Locksmith,(615) 724-6159,1800 Springhouse Ln,Nashville,Tennessee,TN,37201
Locksmiths,"Nashville, TN",https://411.info/business/Emergency-1-Locksmith-Nashville-TN-26420752,Emergency 1 Locksmith,(615) 724-6175,1900 Belmont Blvd,Nashville,Tennessee,TN,37212-3758
Locksmiths,"Nashville, TN",https://411.info/business/123-Locksmith-Nashville-TN-26810580,123 Locksmith,(615) 724-6359,1032 Fitzpatrick Rd,Nashville,Tennessee,TN,37214-3957
Locksmiths,"Nashville, TN",https://411.info/business/A24-Hr-Affordable-Door-Service-Nashville-TN-20320417,A24 Hr Affordable Door Service,(615) 327-3838,107 Music City Cir,Nashville,Tennessee,TN,37214-1214
Locksmiths,"Nashville, TN",https://411.info/business/0007-Lock1-Service-Nashville-TN-21456080,0007 Lock1 Service,(615) 932-6767,539 Paragon Mills Rd,Nashville,Tennessee,TN,37211-3711
Locksmiths,"Nashville, TN",https://411.info/business/Aasby-Locksmtih-Nashville-TN-21456078,Aasby Locksmtih,(615) 932-2182,3510 Chesapeake Dr,Nashville,Tennessee,TN,37207-2127
Locksmiths,"Nashville, TN",https://411.info/business/Farmer-s-Market-Lock-Key-Service-Nashville-TN-12808811,Farmer's Market Lock & Key Service,(615) 646-3397,,Nashville,Tennessee,TN,37201
Locksmiths,"Nashville, TN",https://411.info/business/All-Around-Towing-Nashville-TN-16409443,All Around Towing,(615) 733-0111,,Nashville,Tennessee,TN,37201
Locksmiths,"Nashville, TN",https://411.info/business/1-Action-Lock-and-Key-Nashville-TN-15198007,1 Action Lock and Key,(615) 932-2017,2535 Franklin Pike,Nashville,Tennessee,TN,37204-2713
Locksmiths,"Nashville, TN",https://411.info/business/Springhill-Lock-Key-Nashville-TN-19806807,Springhill Lock & Key,(615) 373-7987,,Nashville,Tennessee,TN,37201
Locksmiths,"Nashville, TN",https://411.info/business/Pop-A-Lock-Nashville-TN-17419576,Pop-A-Lock,(615) 386-1456,2833 Bransford Ave,Nashville,Tennessee,TN,37204-3101
Locksmiths,"Nashville, TN",https://411.info/business/007-Lock-and-Key-Nashville-TN-14390498,007 Lock and Key,(615) 932-6800,4741 Trousdale Dr,Nashville,Tennessee,TN,37220-1332
Locksmiths,"Nashville, TN",https://411.info/business/Aaa-Liberty-Lock-Door-Nashville-TN-23679374,Aaa Liberty Lock & Door,(615) 724-6854,10 Harding Mall Dr,Nashville,Tennessee,TN,37211-4534
Locksmiths,"Nashville, TN",https://411.info/business/Pop-A-Lock-Nashville-TN-24106014,Pop-A-Lock,(615) 889-8605,,Nashville,Tennessee,TN,37201
Locksmiths,"Nashville, TN",https://411.info/business/Fisher-Locks-And-Keys-Nashville-TN-25615016,Fisher Locks And Keys,(615) 258-5940,104 Oak Valley Dr,Nashville,Tennessee,TN,37207-2982
Locksmiths,"Nashville, TN",https://411.info/business/Dwornik-Lockout-Service-Nashville-TN-25636416,Dwornik Lockout Service,(615) 258-5889,6029 Highway 100,Nashville,Tennessee,TN,37205-2820
Locksmiths,"Nashville, TN",https://411.info/business/Roto-Rooter-Plumbing-Nashville-TN-25848814,Roto-Rooter Plumbing,(901) 323-0390,154 Jefferson Sq,Nashville,Tennessee,TN,37215-3701
Locksmiths,"Nashville, TN",https://411.info/business/New-Car-Key-Nashville-TN-25524762,New Car Key,(615) 679-3979,3632 Georgia Ct,Nashville,Tennessee,TN,37209-3845
Locksmiths,"Nashville, TN",https://411.info/business/Denchfield-Automotive-Locks-Nashville-TN-25526434,Denchfield Automotive Locks,(615) 679-3932,1230 4th Ave N,Nashville,Tennessee,TN,37208-2714
Locksmiths,"Nashville, TN",https://411.info/business/Birch-Locks-And-Keys-Nashville-TN-25527014,Birch Locks And Keys,(615) 679-3999,2710 Nolensville Pike,Nashville,Tennessee,TN,37211-2219
Locksmiths,"Nashville, TN",https://411.info/business/Locks-W-Repair-Nashville-TN-25038960,Locks W Repair,(615) 970-3753,715 Main St,Nashville,Tennessee,TN,37206-3619
Locksmiths,"Nashville, TN",https://411.info/business/Nashville-Key-Service-Nashville-TN-23484634,Nashville Key Service,(615) 454-6345,417 Welshwood Dr,Nashville,Tennessee,TN,37211-4209
Locksmiths,"Nashville, TN",https://411.info/business/Keys-On-The-Run-Nashville-TN-23599510,Keys On The Run,(615) 932-2388,3200 Clarksville Pike,Nashville,Tennessee,TN,37218-2812
Locksmiths,"Nashville, TN",https://411.info/business/Algarin-Lockplus-Nashville-TN-26355790,Algarin Lockplus,(615) 258-5084,1703 Church St,Nashville,Tennessee,TN,37203-2921
Locksmiths,"Nashville, TN",https://411.info/business/Avalos-Hacer-Llaves-Nashville-TN-26363072,Avalos Hacer Llaves,(615) 258-5890,628 Main St,Nashville,Tennessee,TN,37206-3604
Locksmiths,"Nashville, TN",https://411.info/business/Amores-Cerraduras-Y-Nashville-TN-26368522,Amores Cerraduras Y,(615) 258-5833,2525 West End Ave,Nashville,Tennessee,TN,37203-1738
Locksmiths,"Nashville, TN",https://411.info/business/Agron-Cerrajero-De-Nashville-TN-26373064,Agron Cerrajero De,(615) 258-5871,1000 Main St,Nashville,Tennessee,TN,37206-3626
Locksmiths,"Nashville, TN",https://411.info/business/Albuquerque-El-Cerrajero-Nashville-TN-26396390,Albuquerque El Cerrajero,(615) 679-3882,1211 51st Ave N,Nashville,Tennessee,TN,37209-2120
Locksmiths,"Nashville, TN",https://411.info/business/Alcon-Hacer-Llaves-Nashville-TN-26400564,Alcon Hacer Llaves,(615) 258-5078,1300 Division St,Nashville,Tennessee,TN,37203-4023
Locksmiths,"Nashville, TN",https://411.info/business/Abc-Lock-Key-Inc-Nashville-TN-27270128,Abc Lock & Key Inc,(615) 818-0148,2008 Dabbs Ave,Nashville,Tennessee,TN,37217-1337
